i,org_name,country,Address,website,phoneNo,language
4000,I.E.S. POETA PACO MOLLÁ,Spain,"Av. Reina Sofia, 21, 03610 Petrer, Alicante, Spain",iespacomolla.es,+34966957300,Spain
4001,Lake Michigan College,United States,"2755 E Napier Ave, Benton Harbor, MI 49022, United States",lakemichigancollege.edu,+1 269-927-1000,English
4002,The Academy Charter High School,United States,,,
4003,I.E.S. Julio Verne,Spain,"C. Estrella Proción, 10, 41015 Sevilla, Spain",iesjulioverne.es,+34 955 62 38 16,Spain
4004,Koforidua Technical University,Ghana,"3P8P+F5F, Koforidua-Nsutam Rd, Koforidua, Ghana",ktu.edu.gh,+233 34 202 4466,English
4005,CSL Consorzio Scuole Lavoro,Italy,"Via XX Settembre, 22, 10121 Torino TO, Italy",cslitalia.net,+39011538792
4006,Chinese Community Center,United States,"9800 Town Park Dr, Houston, TX 77036, United States",ccchouston.org,+1 713-271-6100
4007,Lermontov Regional Multidisciplinary College,Russia,"New Mehrauli Road, JNU Ring Rd, New Delhi, 110067",jnu.ac.in,01126742575,English
4008,Universidad Autónoma de Coahuila-Facultad de Sistemas Saltillo,Mexico,"Ciudad Universitaria, Fundadores Km 13, Zona Centro, 25350 Arteaga, Coah., Mexico",sistemas.uadec.mx,+52 844 689 1032
4009,"INDUSTRIAL TRAINING INSTITUTE, RANAVAV",India,"MR64+QJR, Bhod, Gujarat 360550",,
4010,Taconic High School,United States,"73 Co Rte 11A, Craryville, NY 12521, United States",taconichills.k12.ny.us,+1 518-325-2800
4011,State University of Telecommunications,Ukraine,"Solomianska St, 7, Kyiv, Ukraine, 03110",dut.edu.ua,+380442492591
4012,Capital Area Technical Center,United States,"7 Pierce Dr, Augusta, ME 04330, United States",capitalarea.mainecte.org,+1 207-626-2475,English
4013,SBW Neue Medien AG,Switzerland,"Hafenstrasse 46, 8590 Romanshorn, Switzerland",sbw-media.ch,+41 71 466 14 44
4014,NATIONAL OPEN UNIVERSITY OF NIGERIA,Nigeria,"93, Maidan Garhi Rd, Maidan Garhi, New Delhi, Delhi 110068",ignou.ac.in,011 2957 2513
4015,Eastland-Fairfield Satellite - New Albany HS,United States,,,
4016,Universidad de Ixtlahuaca CUI A.C.,Mexico,,,
4017,Comfamiliar Risaralda,Colombia,"Cra. 5 #21-30, Pereira, Risaralda, Colombia",uc.edu.co,+57 63172400
4018,仙台高等専門学校,Japan,"Japan, 〒981-1239 Miyagi, Natori, Medeshimashiote, Nodayama−４８−48 図書館",,
4019,Universidad Católica San Pablo,Peru,,,
4020,MoHE Alexandria University IT Club Faculty of Sport Education for Men,Egypt,,,
4021,Mevlana Üniversitesi,Turkey,"Ardıçlı Mah., Yeni İstanbul Cad. No:235, 42250 Selçuklu/Konya, Turkey",hurriyet.com.tr,+90 541 296 54 06
4022,Gimnazjum w Jozefinie,Poland,"96-321, Poland",,
4023,Miejski Zespół Szkół Nr 4 w Krośnie,Poland,,,
4024,Whatcom Community College,United States,"237 W Kellogg Rd, Bellingham, WA 98226, United States",whatcom.edu,+1 360-383-3000
4025,NTTF,India,"Survey No. 195- 2D1 & 2B2, Vikkramasi Village Katpadi to Gudiyatham main road Vaduganthangal Post, Taluk, Katpadi, Vellore, Tamil Nadu 632204",nttftrg.com,0416 224 4017,English
4026,Vas- és Villamosipari Szakképző Iskola és Gimnázium,Hungary,,,
4027,Robert Morris Univ,United States,,,
4028,SMK YAPPENDA - Network Engineering & Computer,Indonesia,,,
4029,Main School,Ukraine,"4th Floor, A-72, Street. No. 4, Madhu Vihar Market Main Rd, Patparganj, Delhi, 110092", ,
4030,"International Electronics and Technical Institute, Inc. Pasay",Philippines,"Pasay, Metro Manila, Philippines",,
4031,WITC Rice Lake,United States,,,
4032,Pôle Formation des Industries Technologiques Lorraine,France,,,
4033,Zespół Szkół Ponadgimnazjalnych nr 1,Poland,,,
4034,Senati Callao,Peru,"Av. Pedro Beltran 672, Ventanilla 07051, Peru",senati.edu.pe,+51 1 5532109
4035,Ist. Salesiano San Marco,Italy,,,
4036,Gloucester County Institute of Technology,United States,"1360 Tanyard Rd, Sewell, NJ 08080, United States",gcit.org,+1 856-468-1445,English
4037,Faculdade de Ciências e Tecnologia,Portugal,"Largo da Torre, 2829-516 Caparica, Portugal",fct.unl.pt,+351 21 294 8300,Portugal
4038,First Nations Health Authority,Canada,"61 Queen St, Sioux Lookout, ON P8T 1B8, Canada",slfnha.com,+1 807-737-1802
4039,GIATMARA Parit Sulong,Malaysia,"Kampung Baharu, 83500 Parit Sulong, Johor, Malaysia",m.facebook.com,
4040,Tumba Gymnasium,Sweden,"Utbildningsvägen 2, 147 40 Tumba, Sweden",tumbagymnasium.se,+46 8 530 610 00
4041,Hochschule Luzern - Informatik,Switzerland,"Campus Zug, Suurstoffi 1, 6343 Rotkreuz ZG, Switzerland",hslu.ch,+41417576811,Germany
4042,Fayette Local School District,United States,,,
4043,Universidad Manuela Beltran,Colombia,"Cra. 1 #No. 60-00, Bogotá, Colombia",umb.edu.co,+5715460600
4044,Christian Adolescent Foundation,Nigeria,"296,Ala Quarters, Nigeria",,+2347038267605
4045,CENATE. Regional Heredia,Costa Rica,"Avenue 14 1, Heredia Province, Heredia, 40103, Costa Rica", ,
4046,Independence High School,United States,"10555 Independence Pkwy, Frisco, TX 75035, United States",schools.friscoisd.org,+1 469-633-5400
4047,"INDUSTRIAL TRAINING INSTITUTE, VINCHHIYAA",India,,,
4048,Marneuli youth center,Georgia,,,
4049,Salesianos - Centro Don Bosco,Spain,"Pasaje Don Bosco,1 Urbanización Virgen del Milagro, 34190 Villamuriel de Cerrato, Palencia, Spain",centrodonbosco.es,+34 979 77 72 70
4050,I.E.S. Los Viveros,Spain,"Av. Blas Infante, 16, 41011 Sevilla, Spain",cpifplosviveros.es,+34 955 62 38 62
4051,ensate,Morocco,"P6MF+VPM, Route Ziaten, Tanger, Morocco",,
4052,Colegio Tecnico Profesional Guaycara,Costa Rica,"MWGJ+F5V, Puntarenas Province, Rio Claro, Costa Rica", ,
4053,Tikhoretsk School #6,Russia,,,
4054,Enaip Piemonte,Italy,"Via del Ridotto, 5, 10147 Torino TO, Italy",enaip.piemonte.it,+39 011 217 9700,English
4055,OpenClassrooms - IDF,France,,,
4056,Université Méthodiste au Katanga,Democratic Republic of the Congo,"6JFJ+57P, N1, Mulungwishi‎, Congo - Kinshasa", ,
4057,"INDUSTRIAL TRAINING INSTITUTE, THARAD",India,,,
4058,Instituto Tecnologico Superior de Panuco,Mexico,"Prol. Avenida Artículo Tercero Constitucion s/n, Solidaridad, 93998 Pánuco, Ver., Mexico",itspanuco.edu.mx,
4059,Berkshire Community College,United States,"1350 West St, Pittsfield, MA 01201, United States",berkshirecc.edu,+1 413-499-4660,English
4060,"Colegiul Tehnic Forestier, Ramnicu Valcea",Romania,"Calea lui Traian 195-197, Râmnicu Vâlcea 240273, Romania",colegiul-forestier.iplus.ro,+40 250 749 521,English
4061,Szkola Mistrzostwa Sportowego w Bielsku-Bialej,Poland,"Sikorskiego 4C, 43-300 Bielsko-Biała, Poland",,+48608068884
4062,Ecole Communautaire d'enseignement Supérieur (ECES),Republic of the Congo,"Q7R8+223, N2, Brazzaville, Congo - Brazzaville",,
4063,Mazoon College,Oman,"H7CP+G5W, Seeb, Oman", ,
4064,ASSOULINE,France,,,
4065,Technikum im. św. Józefa w Kaliszu,Poland,"Złota 144A, 62-800 Kalisz, Poland",technikum.kalisz.pl,+48 604 097 098,Poland
4066,Puskás Tivadar Távközlési Technikum Infokommunikációs Szakközépiskola,Hungary,,,
4067,Post and Telecom of Kosovo Center for Training and Development,Kosovo,,,
4068,Cascadia Technical Academy,United States,"12200 NE 28th St, Vancouver, WA 98682, United States",cascadiatechnicalacademy.org,
4069,Школа 1357,Russia,,,
4070,BSO,Germany,,,
4071,INSTITUTO DE EDUCACIÓN SUPERIOR TECNOLÓGICO PÚBLICO NARANJILLO,Peru,"P2R4+C57, Naranjillo 10140, Peru",isten.edu.pe,+51996983327,Spain
4072,I Liceum Ogólnokształcące im. gen. W. Sikorskiego,Poland,,,
4073,JingCheng Institute of Technology,China,"371, Block B, Chittaranjan Park, New Delhi, Delhi 110019",icsin.org,011 4056 4823
4074,Kit Sam Lam Bing Yim Secondary School,Hong Kong,"9 Fu Mei St, Wang Tau Hom, Hong Kong",kitsam.edu.hk,+85223379594,English
4075,Rice Lake High School,United States,"30 S Wisconsin Ave, Rice Lake, WI 54868, United States",rlhs.ricelake.k12.wi.us,+1 715-234-2181
4076,Győri Szolgáltatási SZC Deák Ferenc Közgazdasági Szakgimnáziuma,Hungary,"Győr, Bisinger József stny. 32, 9022 Hungary",deakgyor.hu,+3696312135
4077,Assumption College,United States,"500 Salisbury St, Worcester, MA 01609, United States",assumption.edu,+1 508-767-7000,English
4078,IIS G. Romani,Italy,"Via Trento, 15, 26041 Casalmaggiore CR, Italy",poloromani.edu.it,+39 0375 43295
4079,Marodijeh University,Somalia,"H2MM+9GH, Somalia",,
4080,Instituto Tecnológico Superior Zacatecas Sur,Mexico,"Tecnológico 100, Hacienda Real, 99700 Tlaltenango de Sánchez Román, Zac., Mexico",itszas.edu.mx,+52 437 954 0675
4081,GIATMARA Johor Bahru,Malaysia,"Level 4, Jalan Segget, Bangunan Mara, 80000 Johor Bahru, Johor, Malaysia",giatmara.edu.my,
4082,National Information Technology Center,Kyrgyzstan,"62 Moskovskaya Street, Bishkek 720021, Kyrgyzstan", ,
4083,Phoenix College,United States,"1202 W Thomas Rd, Phoenix, AZ 85013, United States",phoenixcollege.edu,
4084,Aurora High School,United States,"1201 W New York St, Aurora, IL 60506, United States",sd129.org,+1 630-301-5600
4085,Fundación Egresados Universidad Distrital,Colombia,"Cra 20 #32A 45, Teusaquillo, Bogotá, Cundinamarca, Colombia",egresadosudistrital.edu.co,+57 317 6419505
4086,Escola Secundária de Pinheiro e Rosa,Portugal,,,
4087,HKU School of Professional and Continuing Education,Hong Kong,,,
4088,Turtle Mountain Community College,United States,"10145 BIA Rd 7, Belcourt, ND 58316, United States",tm.edu,+1 701-477-7862
4089,CCNA SMK Telkom SPJ,Indonesia,,,
4090,Boys & Girls Clubs of the Midlands,United States,,,
4091,SSOST,Slovakia,"10, Doktor Janského 906, 965 01 Žiar nad Hronom, Slovakia",ssost.edupage.org,+421 45/673 22 68
4092,GLOBAL POLYTECHNIC,Nigeria,"GLOBAL ICT CENTRE (UPSTAIRS) 165, Sapele Road, Dumez Rd, beside Bendel Insurance Company, Junction, Benin City, Nigeria", ,
4093,GALACTUS Digital,France,,,
4094,Hochschule Luzern - Informatik,Switzerland,"Campus Zug, Suurstoffi 1, 6343 Rotkreuz ZG, Switzerland",hslu.ch,+41417576811,Germany
4095,Indian Prairie School District,United States,,,
4096,Benton Harbor High School,United States,"870 Colfax Ave, Benton Harbor, MI 49022, United States",bhas.org,+1 269-605-1200
4097,Enaip Piemonte,Italy,"Via del Ridotto, 5, 10147 Torino TO, Italy",enaip.piemonte.it,+39 011 217 9700,English
4098,Kushchevskaya Education Development Center,Russia,,,
4099,MPT Training Centers,Myanmar (Burma),"Telecommunication & Postal Training Center, Lower Pazundaung Road, Yangon, Myanmar (Burma)", ,
4100,Mauritius Institute of Training and Development,Mauritius,,,
4101,The Hashemite University Academy,Jordan,"453J+5C5, طريق دمشق الدولي, Zarqa, Jordan", ,
4102,MSD of Decatur Township,United States,,,
4103,Mira Costa Community College,United States,,,
4104,Liceul Tehnologic Marmatia,Romania,"Strada General Mociulski, Sighetu Marmației 435500, Romania",ltmarmatia.ro,+40 262 311 325
4105,"Akademickie Liceum Ogólnokształcące ""Lingwista""",Poland,"Gdyńskich Kosynierów 11, 80-866 Gdańsk, Poland",akademickieliceum.eu,+48 58 300 06 05
4106,ISC-MATADI Academie NTIC,Democratic Republic of the Congo,"5FF9+G95, Matadi, Congo - Kinshasa", ,
4107,CEPAs CAM,Spain,,,
4108,IES MANACOR,Spain,"Ses Tapereres, 32, 07500 Manacor, Balearic Islands, Spain",iesmanacor.cat,+34 971 55 14 89,Canada
4109,Telecom Egypt,Egypt,"253Q+W8J, Al Haram, Al Omraneyah Al Gharbeyah, El Omraniya, Giza Governorate 3546220, Egypt", ,
4110,SZB,Hungary,"Lapangan Terbang Sultan Abdul Aziz Shah, 47200 Subang, Selangor, Malaysia",subangskypark.com,,English
4111,Arab Open University - Oman,Oman,"Muscat, Oman", ,
4112,Sveučilište Sjever (University North),Croatia,"Trg dr. Žarka Dolinara 1, 48000, Koprivnica, Croatia",unin.hr,+38548499923,Croatia
4113,Zespół Szkół nr 2 w Nowej Dębie,Poland,"Kościuszki 101, 39-460 Nowa Dęba, Poland",zs2nd.pl,+48 15 846 22 86
4114,BBS Montabaur,Germany,"Von-Bodelschwingh-Straße 33, 56410 Montabaur, Germany",bbs-montabaur.de,+49 2602 15750,English
4115,Tohoku Computer College,Japan,"1 Chome-3-1 Kakyoin, Aoba Ward, Sendai, Miyagi 980-0013, Japan", ,
4116,Balajee Polytechnic College,India,"Marupalli Village, Gajapathinagaram Mandal, Vizianagaram, Andhra Pradesh 535270",balajeepolytechnic.com,09703442222
4117,Mekif Ironi Goldwater Eilat,Israel,,,
4118,University of North Alabama,United States,"1 Harrison Plaza, Florence, AL 35632, United States", ,
4119,Centro de Estudios Tecnológicos Industrial y de Servicios 156,Mexico,"Del Parque s/n, Mesa De Otay, 22510 Tijuana, B.C., Mexico",cetis156.edu.mx,+52 664 623 1376
4120,IIS L. Galvani,Italy,"Via Francesco Gatti, 14, 20162 Milano MI, Italy",iisgalvanimi.edu.it,+39026435651
4121,Moscow ORT Technlogy School (School #1540),Russia,,,
4122,GIATMARA Labis,Malaysia,"No. 10 & 11, Taman Sri Kencana, 85300 Labis, Johor, Malaysia",giatmara.edu.my,+60 7-926 3164
4123,TranZed Apprenticeship Services,United States,"6802 McClean Blvd, Baltimore, MD 21234, United States", ,
4124,Rudolf-Diesel-Fachschule fuer Techniker Nuernberg,Germany,"Äußere Bayreuther Str. 8, 90491 Nürnberg, Germany",rdfnuernberg.de,+49 911 2318825
4125,Universidad EAN,Colombia,"Cl. 71 #9 - 84, Localidad de Chapinero, Bogotá, Cundinamarca, Colombia",universidadean.edu.co,Send to your phone
4126,Paul Smith's College,United States,,,
4127,HKU School of Professional and Continuing Education,Hong Kong,,,
4128,Žilinská univerzita,Slovakia,"Univerzitná 8215, 010 26 Žilina, Slovakia",uniza.sk,+421 41/513 11 11,Slovakia
4129,Jurusan Teknik Informatika Fakultas Teknik Universitas Negeri Gorontalo,Indonesia,"Jl. Jend. Sudirman No.6, Dulalowo Tim., Kec. Kota Tengah, Kota Gorontalo, Gorontalo 96128, Indonesia",,+62435821125
4130,Cypress Heights Academy,United States,,,
4131,"University of the South Pacific, Marshall Islands Campus",Marshall Islands,"Laucala Campus, Suva, Fiji",usp.ac.fj,+679 323 1000,English
4132,East Side Union High School District Adult Education,United States,,,
4133,CIF,Democratic Republic of the Congo,"M7H9+HQW, Kinshasa, Congo - Kinshasa",unicef.org,+243 817 524 616,English
4134,Technological Institute of the Philippines-Manila,Philippines,,,
4135,"Wright College, One of the City Colleges of Chicago",United States,,,
4136,RSUST ITC Academy,Nigeria,,,
4137,aSTEAM Village,United States,"1600 The Paseo, Kansas City, MO 64108, United States",asteamvillage.org,,English
4138,American University of Nigeria Business Center,Nigeria,"640103, Wuro Hausa, Nigeria",,+2348076090649
4139,河北科技大学,China,"China, Hebei, Shijiazhuang, Yuhua District, Shijiazhuang, 裕翔街26号 邮政编码: 051432",,+8631181668026
4140,Social welfare corporation Probono,Japan,"J674+VJW, North Block, Central Secretariat, New Delhi, Delhi 110001",dopt.gov.in,011 2309 2338
4141,M.B. ITI GONDAL,India,"Satodiya Society, Gondal, Gujarat 360311",,
4142,Universidad Cristobal Colon,Mexico,"Carretera Veracruz El Tejar Kilómetro 1.5, Granjas Boticaria, 91930 Veracruz, Mexico",ucc.mx,+52 229 923 2950
4143,Uczelnia Techniczno-Handlowa im. Heleny Chodkowskiej,Poland,"Jagiellońska 82f, 03-301 Warszawa, Poland",uth.edu.pl,+48222628800
4144,Pontiac High School,United States,"1051 Arlene Ave, Pontiac, MI 48340, United States", ,
4145,Winston-Salem/Forsyth County Schools Career Center,United States,"910 Highland Ct, Winston-Salem, NC 27101, United States",wsfcs.k12.nc.us,+1 336-727-8181,English
4146,Zespol Szkol im. Bohaterow Narwiku,Poland,"Gładka 16, 02-172 Warszawa, Poland",narwik.edu.pl,+48 22 846 00 48
4147,ISP-LUBUMBASHI Academie NTIC,Democratic Republic of the Congo,,,
4148,Granbury High School,United States,"2000 W Pearl St, Granbury, TX 76048, United States",granburyisd.org,,English
4149,XIV Liceum Ogólnokształcące,Poland,,,
4150,IFPRO,Morocco,,,
4151,"Imo State Polytechnic, Umuagwo",Nigeria,,,
4152,Clark College,United States,"1933 Fort Vancouver Way, Vancouver, WA 98663, United States",clark.edu,+1 360-699-6398,English
4153,AMA Computer College - Biñan,Philippines,"AMA Computer University, Kilometer 32, National Highway, Canlalay, Biñan, Laguna, Philippines",finduniversity.ph,+63497036163,English
4154,BBZ Dithmarschen,Germany,,,
4155,Chapel Hill Academy,United States,,,
4156,ISISS Caso-Piedimonte Matese,Italy,,,
4157,Chaitanya Institute of Science & Technology 2nd Shift Polytechnic,India,,,
4158,rRhema University,Nigeria,"153 Aba-Owerri Rd, Abayi 453115, Aba, Nigeria",rhemauniversity.edu.ng,+234 807 684 6648
4159,Institución Educativa Piloto Pampa Yurac,Peru,,,
4160,Yellow River Conservancy Technical Institute ITE Departement,China,,,
4161,Southwest Virginia Higher Education Center,United States,"1 Partnership Cir, Abingdon, VA 24210, United States", ,
4162,Centro de Bachillerato Tecnológico Industrial y de Servicios 99,Mexico,"Paseo Tlahuica 127, Paraiso, 62730 Yautepec de Zaragoza, Mor., Mexico",cetis99.edu.mx,"VWGG+CG Yautepec de Zaragoza, Morelos, Mexico"
4163,Manhattan College,United States,"4513 Manhattan College Pkwy, The Bronx, NY 10471, United States",manhattan.edu,+1 718-862-8000
4164,Lisbon Public School,United States,"502 Ash St, Lisbon, ND 58054, United States",lisbonpublicschools.com,
4165,VETA Kipawa Centre for ICT,Tanzania,"Karakata, Kipawa Dar es Salaam TZ, 40040, Tanzania",,+255222843361
4166,IIS E. Balducci,Italy,"Via Aretina, 78a, 50065 Pontassieve FI, Italy",istitutobalducci.edu.it,+390558316806
4167,GIATMARA Bukit Gelugor,Malaysia,"363R, Jalan Sultan Azlan Shah, Taman Tun Sardon, 11700 Gelugor, Pulau Pinang, Malaysia",giatmara.edu.my,+60 4-658 5815
4168,POLICIA NACIONAL DE COLOMBIA - ESCUELA DE TECNOLOGIAS DE LA INFORMACION Y LAS COMUNICACIONES,Colombia,"Kilómetro 20, Via Sibate - Pasca, Bogota, Colombia",policia.gov.co,+57 320 3026838,Spain
4169,Klara-Oppenheimer-Schule,Germany,"Stettiner Str. 1, 97072 Würzburg, Germany",klara-oppenheimer-schule.de,+49 931 7908100,Germany
4170,Bismarck State College,United States,"1500 Edwards Ave, Bismarck, ND 58506, United States",bismarckstate.edu,,English
4171,University of Technology,Russia,,,
4172,SOS elektrotechnicka,Slovakia,"Zvolenská cesta 4220, 975 32 Banská Bystrica, Slovakia",sosebb.edupage.org,
4173,Boys & Girls Clubs of Council Bluffs,United States,"815 N 16th St, Council Bluffs, IA 51501, United States", ,
4174,Lycée John.F. KENNEDY,Senegal,"Dakar, Senegal",,
4175,SRI VIDYA COLLEGE OF ENGG & TECH,India,,,
4176,Colegiul Tehnic George Baritiu,Romania,,,
4177,"I.I.S. ""Giuseppe Peano""",Italy,"Via Andrea del Sarto, 6/a, 50135 Firenze FI, Italy",peano.edu.it,+39 055 661628,Italy
4178,Staatliche Technikakademie Weilburg,Germany,"Frankfurter Str. 40, 35781 Weilburg, Germany",fachschule-weilburg-hadamar.de,+49 6471 92610
4179,CENEC SEVILLA,Spain,"C. Candelilla, 5, PRIMER 0000, 41006 Sevilla, Spain",,
4180,POETA Quezaltepeque,El Salvador,,,
4181,College of Computer Technology Tripoli,Libya,"V36V+27J, Tripoli, Libya", ,
4182,"INDUSTRIAL TRAINING INSTITUTE, JAMKANDORANA",India,"VGR3+V8C, Jamkandorana, Gujarat 360405",,
4183,"KAOHSIUNG-PINGTUNG-PENGHU-TAITUNG REGIONAL BRANCH, WORKFORCE DEVELOPMENT AGENCY, MINISTRY OF LABOR",Taiwan,,,
4184,The Lawn Academy,United States,"4900 E McNichols Rd, Hamtramck, MI 48212, United States",lawnacademy.com,+1 313-333-0814
4185,Henderson County High School CTE,United States,,,
4186,"Federal Government Girls College, Ikot Obio Itong",Nigeria,"MQ9J+RVP, 524106, Mkpat Enin, Nigeria", ,
4187,UNIVERSIDAD LA SALLE A.C.,Mexico,"Av. Benjamín Franklin 45, Colonia Condesa, Cuauhtémoc, 06140 Ciudad de México, CDMX, Mexico",lasalle.mx,+525552789500
4188,Middle East College,Oman,"Rusayl, Oman", ,
4189,警察大学校,Japan,"Japan, 〒183-0003 Tokyo, Fuchu, Asahicho, 3 Chome−１２−1",npa.go.jp,+81 42-354-3550
4190,ISTEC - Instituto Superior de Tecnologias Avançadas,Portugal,"Alameda das Linhas de Torres 179, 1750-142 Lisboa, Portugal", ,
4191,ГБОУ СОШ №2056,Russia,"Plot G 50 E, Nyaya Marg, Chanakyapuri, New Delhi, Delhi 110021",newdelhischool.ru,011 2410 7140
4192,TeachNW - Cisco Academy Support Center at Clark College,United States,"H8XJ+89V, E Block, Sector 11, Noida, Uttar Pradesh 201301",cisco.com,1800 553 6387,English
4193,BBZ Dithmarschen Meldorf,Germany,"Friedrichshöferstraße 31, 25704 Meldorf, Germany",bbz-dithmarschen.de,+49 4832 9030,Germany
4194,Institut Superieur des Techniques Appliquees ISTA,Democratic Republic of the Congo,"M8GJ+VWV, Ave De L'aerodrome, Kinshasa, Congo - Kinshasa",ista.ac.cd,+243 850 610 598,France
4195,Akwa Ibom State Polytechnic CA,Nigeria,"3W9P+9R4, Ikpa Rd, 520101, Uyo, Nigeria",uyocitypoly.edu.ng,+234 802 357 2612,English
4196,RAJIV GANDHI RECS POLYTECHNIC,India,Anakapalle Bypass Kasimkota Andhra Pradesh 531031 Republic of,rajivgandhirecspoly.com,
4197,Manual Career Technical Center,United States,"1215 E Truman Rd, Kansas City, MO 64106, United States",manual.kcpublicschools.org,
4198,河南大学,China,,,
4199,Centro de Bachillerato Tecnológico Industrial y de Servicios 269,Mexico,,,
4200,INFN,Italy,,,
4201,South Mountain CC,United States,"7050 S 24th St, Phoenix, AZ 85042, United States", ,
4202,Polo Bianciardi,Italy,"Piazza Stefano De Maria, 31, 58100 Grosseto GR, Italy",polobianciardigrosseto.edu.it,+39 0564 484851
4203,ISEP,Portugal,"R. Dr. António Bernardino de Almeida 431, 4249-015 Porto, Portugal",isep.ipp.pt,+351 22 834 0500,Portugal
4204,Universitas Bunda Mulia,Indonesia,"Jl. Lodan Raya No.12, RT.12/RW.2, Ancol, Kec. Pademangan, Kota Jkt Utara, Daerah Khusus Ibukota Jakarta 14430, Indonesia",ubm.ac.id,"VRC9+39 Ancol, North Jakarta City, Jakarta, Indonesia"
4205,中國文化大學 (ITC),Taiwan,,,
4206,GIATMARA Kluang,Malaysia,"LOT 1, Jalan Dato Kapten Ahmad, Kampung Masjid Lama, 86000 Kluang, Johor, Malaysia",trainingmalaysia.com,+60 7-773 9506
4207,SBSK GmbH & Co.KG,Germany,"Zackmünder Str. 4, 39218 Schönebeck (Elbe), Germany",sbsk.de,+49392848040,Germany
4208,POLICIA NACIONAL DE COLOMBIA - ESCUELA DE TECNOLOGIAS DE LA INFORMACION Y LAS COMUNICACIONES,Colombia,"Kilómetro 20, Via Sibate - Pasca, Bogota, Colombia",policia.gov.co,+57 320 3026838,Spain
4209,Canyons Technical Education Center,United States,"825 E 9085 S, Sandy, UT 84094, United States",ctec.canyonsdistrict.org,+1 801-826-6600
4210,Faculty of Information and Communication Technologies,Macedonia (FYROM),"28FG+28V, Studentska, Bitola, North Macedonia",fikt.uklo.edu.mk,+38947259921
4211,National University of Science and Technology MISIS,Russia,"Institutskiy Pereulok, 9, Dolgoprudny, Moscow Oblast, Russia, 141701", ,
4212,Súkromná stredná odborná škola Poprad,Slovakia,,,
4213,Forte Chance Piemonte,Italy,"Via Bologna, 78, 10152 Torino TO, Italy",fortechance.it,+39 011 437 9979,Italy
4214,Monday Regression 0408 ITC,United States,,,
4215,GROUPE IPG ISTI,Senegal,,,
4216,Frederick County Career & Technology Center,United States,"7922 Opossumtown Pike, Frederick, MD 21702, United States", ,
4217,Missouri River Educational Cooperative (MREC),United States,"128 Soo Line #102, Bismarck, ND 58501, United States",,
4218,"I.T.I.S. ""A. Monaco""",Italy,"133 87100, Viale Giacomo Mancini, 127-133, 87100 Cosenza CS, Italy",itimonaco.edu.it,+390984411881
4219,لمركز القطاعي للتكوين في الميكاترونيك ببرج السدرية,Tunisia,"Ecole Primaire Rue d'Irak، la Jeunesse,, Borj Cédria, Tunisia",,+21671411120
4220,"Department of Information Engineering,Shijiazhuang Vocational College of Finance & Economics",China,"China, Hebei, Shijiazhuang, Yuhua District, Shijiazhuang, 湘江道39号",,+8631185388811
4221,San Ysidro High School,United States,"5353 Airway Rd, San Diego, CA 92154, United States",syh.sweetwaterschools.org,+1 619-710-2300
4222,Forsyth Technical Community College,United States,"2100 Silas Creek Pkwy, Winston-Salem, NC 27103, United States",forsythtech.edu,
4223,INSTITUT SUPERIEUR INFORMATIQUE,Senegal,"KM1 Av. Cheikh Anta Diop, Dakar 28110, Senegal",groupeisi.com,+221 33 822 19 81
4224,Col·legi Cultural,Spain,,,
4225,CECI377-CCP Pococí,Costa Rica,,,
4226,Lanier Technical College,United States,"2535 Lanier Tech Dr, Gainesville, GA 30507, United States",laniertech.edu,+1 770-533-7000
4227,Advanced IT Architect Human Resource Development Council,Japan,"2 Chome-32-1 Ogawa Nishimachi, Kodaira, Tokyo 187-0035, Japan", ,
4228,Ort Hermelin Engineering College,Israel,,,
4229,Instituto Tecnologico de Veracruz,Mexico,"Av. Miguel Angel de Quevedo 2779, Formando Hogar, 91897 Veracruz, Ver., Mexico",itver.edu.mx,+52 229 934 1500
4230,CCI ILE DE LA REUNION (CCFEST),Reunion,,,
4231,Colegiul Tehnic Henri Coanda Tg-Jiu,Romania,"Strada Islaz 2, Târgu Jiu 210107, Romania",cthcgorj.ro,+40 253 215 550,Romania
4232,Birchmount Park Collegiate Institute,Canada,"3663 Danforth Ave, Scarborough, ON M1N 2G2, Canada",schoolweb.tdsb.on.ca,+1 416-396-6704
4233,EPSI Montpellier,France,"437 Av. des Apothicaires, 34090 Montpellier, France",epsi.fr,+33467042001
4234,University of Technology and Applied Sciences - Muscat Oman,Oman,"133 Al Khuwayral Al Janubyyah St, Muscat, Oman", ,
4235,ACADÉMIE DES TECHNOLOGIES INNOVANTES DE NGAOUNDERE,Cameroon,"CG8V+R3R, Ngaoundere, Cameroon",auf.org,Send to your phone,France
4236,Technische Hochschule Ostwestfalen Lippe,Germany,,,
4237,SMK Negeri 5 Bandung,Indonesia,"Jl. Bojong Koneng No.37A, Sukapada, Kec. Cibeunying Kidul, Kota Bandung, Jawa Barat 40191, Indonesia",smkn5bandung.sch.id,+62 22 7100428,English
4238,Delia Memorial School (Broadway),Hong Kong,"80-86號, Broadway, Mei Foo Sun Chuen, Hong Kong",deliabw.edu.hk,+85227422028
4239,ISET Kairouan,Tunisia,"P2, Reggada 3191, Tunisia",isetkr.rnu.tn,+21677323300
4240,The Open Institute in Prishtina,Kosovo,"28 Rexhep Mala, Prishtina 10000",mesoonline-ks.org,M548+22 Pristina
4241,Applied Science University,Jordan,"Al-Arab St. 21, Amman, Jordan", ,
4242,Akwa Ibom State College of Education,Nigeria,,,
4243,Cousino High School,United States,"30333 Hoover Rd, Warren, MI 48093, United States",school.wcskids.net,+1 586-574-3100
4244,Korolyov Zhytomyr Military Institute,Ukraine,,,
4245,Сибирский федеральный университет,Russia,"Svobodnyy Ave, 82А, Krasnoyarsk, Krasnoyarsk Krai, Russia, 660041", ,
4246,IS Valdarno,Italy,,,
4247,"School of New Media, Zhejiang University of Media & Communications",China,,,
4248,David and Mary Thomson CI,Canada,"125 Brockley Dr, Toronto, ON M1P 0E3, Canada", ,
4249,GIATMARA Lenggong,Malaysia,"Plaza Lenggong, B-11, Jalan Alang Iskandar, Lenggong, 33400, Perak, 33400 Lenggong, Malaysia",,
4250,Fundacion CIDCA,Colombia,"27, Villavicencio, Meta, Colombia",,+573104738405
4251,College of the North Atlantic - Qatar,Qatar,"24449 Arab League St, Doha, Qatar", ,
4252,Stredná odborná škola technická,Slovakia,"Kukučínova 108/23, 040 01 Juh, Slovakia",soskuke.sk,
4253,Волжский гуманитарный институт,Russia,"Ulitsa 40 Let Pobedy, 11, Volzhskiy, Volgograd Oblast, Russia, 404133", ,
4254,"The Maldives National University - Faculty of Engineering, Science and Technology",Maldives,"371 Ameenee Magu, Malé 20371, Maldives",mnu.edu.mv,+960 334-5403
4255,BEM,Italy,,,
4256,Letcher County Central High School,United States,"435 Cougar Dr, Whitesburg, KY 41858, United States",letcher.kyschools.us,
4257,Business Incubator IT-Park Alania,Russia,,,
4258,3D INFORMATICA,Italy,"Via Speranza, 35, 40068 San Lazzaro di Savena BO, Italy",3di.it,+39 051 450844
4259,Centro de Capacitación para el Trabajo Industrial No.25,Mexico,"Calz. San Antonio Abad 32-Piso 2, Tránsito, Cuauhtémoc, 06820 Ciudad de México, CDMX, Mexico",icat.cdmx.gob.mx,+52 55 5740 0237
4260,Yadkin County Schools,United States,,,
4261,University of Memphis,United States,"3720 Alumni Ave, Memphis, TN 38152, United States",memphis.edu,+1 901-678-2000,English
4262,"INDUSTRIAL TRAINING INSTITUTE, VADGAM",India,,,
4263,INS Barres i Ones,Spain,"Ctra. Antiga de València, 95, 08913 Badalona, Barcelona, Spain",agora.xtec.cat,+34 933 87 44 04
4264,"Tatabanyai ISzK Mikes Kelemen Gimnazium, Szakkozepiskola es Szakiskola",Hungary,,,
4265,SENATI-Sede Puerto Maldonado,Peru,"Jr. Jr, Marcos Ruiz, Puerto Maldonado, Peru",senati.edu.pe,+51 82 573092
4266,Fort Zumwalt North High School,United States,"1230 Tom Ginnever Ave, O'Fallon, MO 63366, United States",nhs.fz.k12.mo.us,+1 636-272-4447
4267,I P C C,India,"2nd Floor, Thapar House, 124 Janpath, New Delhi, Delhi 110001",sustainabledevelopment.in,011 4372 3326,English
4268,Grapevine-Colleyville CHHS,United States,"5401 Heritage Ave, Colleyville, TX 76034, United States",chhs.gcisd.net,
4269,Satakunta University of Applied Sciences,Finland,"Satakunnankatu 23, 28130 Pori, Finland",samk.fi,+358 2 6203000,Finland
4270,Jackson Area Career Center,United States,"6800 Browns Lake Rd, Jackson, MI 49201, United States",jacc-mi.net,+1 517-768-5200
4271,University of Technology and Applied Sciences - Muscat Oman,Oman,"133 Al Khuwayral Al Janubyyah St, Muscat, Oman", ,
4272,Clear View Business Training Center,Macedonia (FYROM),"NH91, Tehsil Dadri, Greater Noida, Uttar Pradesh 201314",snu.edu.in,1800 102 1768
4273,Yalvaç Mesleki ve Teknik Anadolu Lisesi,Turkey,"Sanayi, Turgut Özal Blv. No:92/A, 32400 Yalvaç/Isparta, Turkey",,+902464415556
4274,BS WHI Neubrandenburg,Germany,,,
4275,Kuwait University,Kuwait,,,
4276,Universiteti për Biznes dhe Teknologji,Kosovo,"J5W3+V69, Prishtina 10000",ubt-uni.net,+377 44 541 400
4277,National School For Practical Engineers,Israel,"קרית הטכניון, Haifa, Israel",,
4278,黄冈职业技术学院,China,"China, Hubei, Huanggang, Huangzhou District, 十力路 邮政编码: 438002",,
4279,Collège la grange du bois,France,"2 Av. Victor Schoelcher, 77176 Savigny-le-Temple, France",clg-la-grange-du-bois-savigny-le-temple.fr,+33 1 64 10 84 64
4280,Universidad de Occidente,Mexico,"Blvd. Macario Gaxiola y Carretera internacional, México 15, 81223 Los Mochis, Sin., Mexico", ,
4281,Università degli Studi Mediterranea,Italy,"Via dell'Università, 25, 89124 Reggio Calabria RC, Italy",unirc.it,+39 0965 169 1207
4282,Instituto Profesional Santo Tomas - Sede Rancagua,Chile,,,
4283,SENATI - Sede de Tecnologías Ambientales,Peru,"C. Barbara D'Achile 230, Surquillo 15038, Peru",senati.edu.pe,+51 939 963 092
4284,"ФГБОУ ВО ""КубГУ"" филиал г. Славянск-на-Кубани",Russia,,,
4285,GIATMARA Bukit Bendera,Malaysia,,,
4286,Grenoble INP - Esisar,France,"50 Rue Barthélémy de Laffemas, 26000 Valence, France",esisar.grenoble-inp.fr,+33 4 75 75 94 00
4287,Fundación Universitaria INPAHU,Colombia,"Cra. 16 #39A, Localidad de Chapinero, Bogotá, Cundinamarca, Colombia", ,
4288,MOI Competence Center,Qatar,"9H93+P57, Doha, Qatar", ,
4289,North-Eastern Federal University in Yakutsk,Russia,"Belinsky str, 58, Yakutsk, Sakha Republic, Russia, 677027",s-vfu.ru,"2P95+W9 Yakutsk, Russia"
4290,Stredná odborná škola technická Michalovce,Slovakia,"Partizánska 1, 071 01 Michalovce-Stráňany, Slovakia",sostmi.edupage.org,
4291,Zambia Institue For Capacity Building / Breaking Barriers Academy,Zambia,,,
4292,Kurganinsk School #1,Russia,,,
4293,South Central Louisiana Technical College - Young Memorial Campus,United States,"900 Youngs Rd, Morgan City, LA 70380, United States",solacc.edu,+1 985-380-2957
4294,San Jose City Community College,United States,,,
4295,I.T.C. Don M. Arena Sciacca AG,Italy,"Via Vittoria Nenni, 2, 92019 Sciacca AG, Italy",iissarena.edu.it,+39092522510
4296,Centros de Integración Juvenil MHidlago,Mexico,"Bahía de Coqui 76, Verónica Anzúres, Miguel Hidalgo, 11300 Ciudad de México, CDMX, Mexico",cij.gob.mx,+52 55 5260 0719
4297,ENGIM CSF,Italy,"Via del Murialdo, 1, 30035 Mirano VE, Italy",mirano.engimveneto.org,+39 041 430800
4298,Centro de Capacitación para el Trabajo Industrial No. 58,Mexico,"Av. San Rafael Atlixco S/n, Guadalupe del Moral, Iztapalapa, 09300 Ciudad de México, CDMX, Mexico",,
4299,Salesianos La Cuesta,Spain,"C. María Auxiliadora, 14, 38320 La Laguna, Santa Cruz de Tenerife, Spain",lacuesta.salesianos.edu,+34922646012
4300,Page High School,United States,"6281 Arno Rd, Franklin, TN 37064, United States",wcs.edu,+1 615-472-4730,English
4301,Liceum Ogólnokształcące im. Bohaterów Powstań Śląskich,Poland,,,
4302,New Horizons München,Germany,"Stahlgruberring 11-11a, 81829 München, Germany",newhorizons-munich.de,+49 89 997409350,English
4303,Zespół Szkół Ekonomiczno-Technicznych im. Kombatantów Ziemi Lwóweckiej w Rakowicach Wielkich,Poland,"Tama w Rakowicach Wielkich, Rakowice Wielkie 48, 59-600 Rakowice Wielkie, Poland",zsetrakowice.pl,+48 75 782 43 63
4304,"INDUSTRIAL TRAINING INSTITUTE, VAV",India,"Shree Maheta N.S.Vinay Mandir, NEAR NATIONAL HIGHWAY NO. 15, Gujarat 385575",gacvav.com,02740 227 101
4305,IES Almata,Spain,"Lugar Parc del Reial, s/n, 25600 Balaguer, Lleida, Spain",almata.cat,+34 973 44 56 91
4306,TSI CA Thirty,United States,,,
4307,"MVP Accelerator, Inc.",United States,"1F Business Center 12 Philexcel Business Park, MA, Manuel A. Roxas Hwy, Clark Freeport, Angeles, 2009 Pampanga, Philippines", ,
4308,SENA - Santa Marta,Colombia,"Av. Del Ferrocarril, Comuna 4, Santa Marta, Magdalena, Colombia",senamagdalena.blogspot.com.co,+576054212064
4309,Fanshawe College of Applied Arts and Technology,Canada,"Citi Plaza Mall, 355 Wellington St Unit 114, London, ON N6A 3N7, Canada",fanshawec.ca,+1 519-667-2392,English
4310,Generátor Alapítvány,Hungary,"Budapest, Delej u. 24, 1089 Hungary",autizmus.hu,+3612104364
4311,Universidad Tecnológica de Tula-Tepeji,Mexico,"Avenida Universidad Tecnológica, No. 1000, El Carmen, 42830 Hgo., Mexico",uttt.edu.mx,+52 773 732 9100,Spain
4312,CNA Mannheim,Germany,,,
4313,Yelets State University,Russia,"Ulitsa Kommunarov, 28, Yelets, Lipetsk Oblast, Russia, 399770",,
4314,今井 正文,Japan,,,
4315,Orange Unified School District,United States,,,
4316,Colegio Nacional E.M.D Dr. Fernando de la Mora,Paraguay,,,
4317,Hidden0906B,Lithuania,,,
4318,Association of Jordan University Friends,Palestine,"60 Frome St, Adelaide SA 5000, Australia",afopa.com.au,+61 8 8232 5273,English
4319,Faith Academy,United States,"510 NE 11th St, Guymon, OK 73942, United States",,
4320,McClusky Public School,United States,"219 Ave D W, McClusky, ND 58463, United States",,
4321,Olive-Harvey College,United States,"10001 S Woodlawn Ave, Chicago, IL 60628, United States",ccc.edu,,English
4322,Moscow Polytechnic College #39,Russia,,,
4323,Netplus College of Information Technology,Canada,"1891 Kennedy Rd Unit #3, Scarborough, ON M1P 2L9, Canada", ,
4324,Universidad Romulo Gallegos,Venezuela,,,
4325,GIATMARA Kuala Terengganu,Malaysia,"Lot 1080, Jalan Hj Busu, Batu Buruk, Terenganu, 20400 Kuala Terengganu, Malaysia",giatmara.edu.my,+60 9-620 3653
4326,CECI91-Miramar,Costa Rica,,,
4327,"ITPark, VNU-HCM",Vietnam,,,
4328,Centro de Estudios Tecnológicos Industrial y de Servicios98,Mexico,"Eje 5 Sur, Av. Leyes de Reforma S/n, Leyes de Reforma 3ra Secc, Iztapalapa, 09310 CDMX, Mexico",cetis153.edu.mx,+525556945680
4329,Escuela Colombiana de Ingeniería Julio Garavito,Colombia,"AK 45 (Autonorte) #205-59, Suba, Bogotá, Cundinamarca, Colombia",escuelaing.edu.co,+57 16683600,Spain
4330,SPS elektrotechnicka Presov,Slovakia,"Plzenská 2832, 080 01 Prešov, Slovakia",spse-po.sk,
4331,Southwest State University,Russia,"50 Let Oktyabrya Ulitsa, 94, Kursk, Kursk Oblast, Russia, 305040",,
4332,LP Jean Perrin,Reunion,"BP 502 97440, Rue du Lycée, Réunion",ac-reunion.fr,+262 262 58 84 40,France
4333,Ben Roshod Tamra,Israel,,,
4334,Test ITC 0408,Taiwan,,,
4335,IIS Luigi di Savoia-Rieti,Italy,"Viale Emilio Maraini, 54, 02100 Rieti RI, Italy",iisluigidisavoia.edu.it,+390746270870
4336,Zespol Szkol Technicznych i Licealnych nr 2,Poland,"Jana Kilińskiego 8C, 05-825 Grodzisk Mazowiecki, Poland",zstl2grodzisk.edu.pl,+48227555800
4337,IPSSAR M. Rossi Doria,Italy,,,
4338,Universidad De Nueva Extremadura,Mexico,"Gral. Ignacio Zaragoza 208, Cabecera Municipal (Apodaca), Apodaca Centro, 66600 Cd Apodaca, N.L., Mexico",,
4339,West Side Career & Technology Center,United States,"75 Evans St, Kingston, PA 18704, United States",wsctc.net,+1 570-288-8493
4340,Cégep de Chicoutimi,Canada,"534 Rue Jacques-Cartier E, Chicoutimi, QC G7H 1Z6, Canada",cchic.ca,+1 418-549-9520,France
4341,Macau Productivity and Technology Transfer Center,Macau,"175 R. de Xangai, Macao",,
4342,Lycée Cheikh Omar Foutiyou Tall,Senegal,"St Louis, Senegal", ,
4343,International School of Stuttgart,Germany,,,
4344,K J Somaiya College of Engineering,India,"Vidyanagar, Vidya Vihar East, Vidyavihar, Mumbai, Maharashtra 400077",kjsce.somaiya.edu,022 6644 9191
4345,Fairfield Public Schools,United States,"501 Kings Hwy E UNIT 210, Fairfield, CT 06825, United States",fairfieldschools.org,+1 203-255-8277
4346,Society for Research in Information and Social Technology Innovations (SRISTI),India,,,
4347,Universitat de Valencia,Spain,,,
4348,certification wing,United States,"14101 Sullyfield Cir #400c, Chantilly, VA 20151, United States", ,
4349,"INDUSTRIAL TRAINING INSTITUTE, CHANDKHEDA",India,,,
4350,IISS V. Ignazio Capizzi,Italy,,,
4351,SENATI-Sede Cusco,Peru,,,
4352,Cisco Academy Chiclayo,Peru,,,
4353,Montgomery County Public Schools-Christiansburg High School,United States,"100 Independence Blvd NW, Christiansburg, VA 24073, United States",chs.mcps.org,
4354,Lapin ammattikorkeakoulu,Finland,"Jokiväylä 11, 96300 Rovaniemi, Finland",lapinamk.fi,+358 20 7986000
4355,University of Applied Sciences Mannheim,Germany,"Paul-Wittsack-Straße 10, 68163 Mannheim, Germany",hs-mannheim.de,+496212926111,Germany
4356,"Bartın Teknik ve Endüstri Meslek Lisesi, Denizcilik Anadolu Meslek Lisesi",Turkey,,,
4357,Njala University,Sierra Leone,"Njala Campus, Bo, Sierra Leone",business.site,+232 78 615158,English
4358,ESPITA,Tunisia,"Campus Universitaire Boukhzar Route ceinture Bouhsina, Tunisia",espita.ens.tn,+21699666610
4359,California State University San Bernardino,United States,"5500 University Pkwy, San Bernardino, CA 92407, United States",csusb.edu,+1 909-537-5000,English
4360,Toyohashi Nishi Highschool,Japan,,,
4361,Dun Laoghaire Rathdown Library Service,Ireland,"2 Crofton Rd, Dún Laoghaire, Dun Laoghaire, Co. Dublin, Ireland",,
4362,Baker High School,United States,"8901 Airport Blvd, Mobile, AL 36608, United States",mcpss.com,+1 251-221-3000,English
4363,"National Pilot School of Software,Yunnan University",China,"2 Cuihu N Rd, Wuhua District, Kunming, Yunnan, China, 650106",ynu.edu.cn,+86 871 6503 0908,English
4364,Transversal,Haiti,"38 Route de Canapé Vert Port-au-Prince HT, 6115, Haiti",transversal.ht,+509 37 02 7275
4365,MOE-Eldad high-school Netanya,Israel,,,
4366,CIBERTEC,Peru,"Av. Carlos Izaguirre 233, San Martín de Porres 15311, Peru", ,
4367,Mott/Regent High School,United States,"205 Dakota Ave, Mott, ND 58646, United States",mott.k12.nd.us,
4368,Saransk Automechanical Technicum,Russia,,,
4369,Morris County School of Technology,United States,"400 E Main St, Denville, NJ 07834, United States",mcvts.org,,English
4370,Fundacite Guarico,Venezuela,,,
4371,Faculty of electronic engineering,Egypt,"H2G5+274 شبين الكوم، قسم شبين الكوم،, Menofia Governorate, Egypt", ,
4372,أكاديمية سيسكو الإقليمية,Qatar,,,
4373,GIATMARA Jempol,Malaysia,"Bandar Baru Serting, 72120 Bandar Seri Jempol, Negeri Sembilan, Malaysia",facebook.com,+60 6-458 1950
4374,IT Academy Seavus Education and Development Center (SEDC),Macedonia (FYROM),,,
4375,SVOS Modra,Slovakia,,,
4376,Compensar Unipanamericana Fundación Universitaria,Colombia,,,
4377,STMIK Swadharma,Indonesia,"Jl. Cabe IV No.20, Pd. Cabe Udik, Kec. Pamulang, Kota Tangerang Selatan, Banten 15418, Indonesia",swadharma.ac.id,+62217492432,English
4378,Yakutsk College of Communications and Energetics,Russia,,,
4379,Universidad Iberoamericana,Mexico,"Prol. Paseo de la Reforma primer nivel 880-Edificio “I, Lomas de Santa Fe, Ciudad de México, Mexico",ibero.mx,+525559504000
4380,Tarrant County College-Northwest,United States,"4801 Marine Creek Pkwy, Fort Worth, TX 76179, United States",tccd.edu,+1 817-515-8223,English
4381,FIDETIA,Spain,"Escuela Técnica Superior de Ingeniería Informática, Av. de la Reina Mercedes, 41012 Sevilla, Spain",fidetia.es,+34 954 55 68 23,Spain
4382,Global Knowledge,United States,,,
4383,VIT University Chennai,India,"Kelambakkam - Vandalur Rd, Rajan Nagar, Chennai, Tamil Nadu 600127",chennai.vit.ac.in,044 3993 1555
4384,John Murtha,Canada,"479 Airport Rd, Johnstown, PA 15904, United States",flyjst.com,
4385,Inver Hills Community College,United States,,,
4386,IMS Ghaziabad (UC Campus),India,,,
4387,New Horizons Leipzig,Germany,"Upper Ground Floor, South Wing, Nbcc Palce, Bhisma Pitamaha Road, Opposite Sai Baba Temple, New Delhi, Delhi 110003",newhorizons.com,01143612400
4388,Colegio Tecnico Profesional San Carlos,Costa Rica,,,
4389,Karnataka German Technical Training Institute (Bengaluru),India,"KGMSDC Society, CoE Building, Kaushalya Bhavan Campus, Banneraghatta Road, Bengaluru, Karnataka 560029", ,
4390,Highland Park High School,United States,"433 Vine Ave, Highland Park, IL 60035, United States",hphs.dist113.org,+1 224-765-2000
4391,ISS Pitagora,Italy,"Via Tiberio, 1, 80078 Pozzuoli NA, Italy",istitutostatalepitagora.it,+39 081 855 5372
4392,Universidad Tecnológica de la Zona Metropolitana de Guadalajara,Mexico,"Carretera Santa Cruz-San Isidro Km. 4.5, 45640 Santa Cruz de las Flores, Jal., Mexico",utzmg.edu.mx,+52 33 3770 1650,Spain
4393,Березняковская Средная школа,Kazakhstan,,,
4394,SENATI-Sede Tacna,Peru,,,
4395,Tanner Thomas Career Institute/ A & T Cisco Network Academy,United States,,,
4396,PSR ENGINEERING COLLEGE,India,"Sivakasi, Sevalpatti, Tamil Nadu 626140",psr.edu.in,04562 239 600
4397,Vision Charter Academy,United States,"263 Main St, Delta, CO 81416, United States",visioncharteracademy.org,+1 970-874-8336,English
4398,SENATI,Peru,,,
4399,School 1006,Russia,,,
4400,Association of Jordan University Friends,Palestine,"60 Frome St, Adelaide SA 5000, Australia",afopa.com.au,+61 8 8232 5273,English
4401,Alliance Academy for Innovation,United States,"1100 Lanier 400 Parkway, Cumming, GA 30040, United States",forsyth.k12.ga.us,+1 470-695-7823,English
4402,McGIll-Toolen Catholic High School,United States,"1501 Old Shell Rd, Mobile, AL 36604, United States",mcgill-toolen.org,
4403,Foro Consultivo Cientifico y Tecnologico,Mexico,"Av Melchor Ocampo 305, Santa Catarina, Coyoacán, 04010 Ciudad de México, CDMX, Mexico",,+525556118536
4404,昆明冶金高等专科学校计算机信息学院,China,,,
4405,Universidad en Estudios de Posgrado en Derecho,Mexico,,,
4406,I.E.S. Vega del Guadalete,Spain,"Av. el Bosque, 11570 La Barca de la Florida, Cádiz, Spain",iesvegadelguadalete.es,+34956709840
4407,Ozersk Technological University,Russia,,,
4408,Centennial College CTC,Canada,"941 Progress Ave, Scarborough, ON M1G 3T8, Canada",centennialcollege.ca,+1 416-289-5000
4409,FINKI UKIM,Macedonia (FYROM),,,
4410,TUTED,Turkey,"Balmumcu, Barbaros Blv. No:24, 34349 Beşiktaş/İstanbul, Turkey",,+902122671501
4411,Universidad Autónoma de Guadalajara,Mexico,,,
4412,CECI117-Marañonal Esparza,Costa Rica,,,
4413,New Educational Technologies,Russia,,,
4414,QA_GA3_ITC_Acad1,India,,,
4415,CORPORACION COMMUNITY NETWORK,Colombia,"Cra. 17 #32a-34, Bogotá, Colombia", ,
4416,Gymnazium Mikulasa Galandu,Slovakia,"Horné Rakovce 1440/29, 039 01 Turčianske Teplice, Slovakia",,
4417,Шатурский энергетический техникум,Russia,"Prospekt Il'icha, 2, Shatura, Moscow Oblast, Russia, 140700", ,
4418,Secretaria de Educacion Distrital (Centro Auxiliar de Servicios Docentes-CASD),Colombia,"Carrera 24A Calle 6, Barrio Niágara, Armenia, Quindío, Colombia",casdquindio.edu.co,,Spain
4419,Milli Egitim Bakanligi Egitim Teknolojileri Genel Mudurlugu,Turkey,"Fatih Mah. Hükümet Konağı, Saraykent Merkez, Saraykent, Yozgat, Turkey",saraykent.meb.gov.tr,+903543686459
4420,United Tribes Technical College,United States,,,
4421,Zespół Szkół Ponadgimnazjalnych nr 2 Centrum Kształcenie Praktycznego im. T. Kościuszki w Garwolinie,Poland,,,
4422,Ashland Community and Technical College,United States,"1400 College Drive, Ashland, KY 41101, United States",ashland.kctcs.edu,+1 606-326-2000,English
4423,MyComputerCareer,United States,"5511 Capital Center Dr Suite 500, Raleigh, NC 27606, United States", ,
4424,Black River Local Schools,United States,,,
4425,I.E.S. Oretania,Spain,"C. Fernando de Herrera, 8, 23700 Linares, Jaén, Spain",iesoretania.es,+34 953 60 98 51,Spain
4426,Alphax College,Kenya,"Langas Kapseret, Kenya",alphax.ac.ke,+254 723 118940,English
4427,Inver Hills Community College,United States,,,
4428,Allegany County Center for Career and Technology Education,United States,"14211 McMullen Hwy SW, Cumberland, MD 21502, United States",acpsmd.org,+1 301-729-6486,English
4429,Merrill High School,United States,"1201 North Sales Street, Merrill, WI 54452, United States",maps.k12.wi.us,+1 715-536-4594
4430,"INDUSTRIAL TRAINING INSTITUTE, MANSA",India,"FJPM+6C8, Gandhinagar, Gujarat 382810",,
4431,國立羅東高級工業職業學校,Taiwan,"No. 117, Guangxing Rd, Dongshan Township, Yilan County, Taiwan 269", ,
4432,"Instituto Tecnológico de Tlajomulco, Jal",Mexico,"Km 10 carr Tlajomulco, Cto. Metropolitano Sur, 45640 Tlajomulco de Zúñiga, Jal., Mexico",tlajomulco.tecnm.mx,+523329021130
4433,France CDA ASC,France,"8, Sector 5, Rama Krishna Puram, New Delhi, Delhi 110066",pcdarnd.gov.in,011 2619 1559
4434,Liska József Secondary Technical and Grammar School,Hungary,"Jászberény, Rákóczi út 13, 5100 Hungary",liska-szki.hu,+36 57 412 818
4435,SJB Institute of Technology.,India,"No.67, BGS Health & Education City, Dr.Vishnuvardhan Rd, Kengeri, Bengaluru, Karnataka 560060",sjbit.edu.in,080 2861 2445,English
4436,UNIVERSIDAD NUESTRA SEÑORA DEL CARMEN,Panama,"2HV4+JRV, Panamá, Panama",cnsc.edu.pa,+507 266-2829,Spain
4437,Integrated Polytechnic Regional College (IPRC Karongi),Rwanda,"W9F2+3HX, Gitesi, Rwanda",,+250788871075
4438,Faculty of Sciences of Gabes,Tunisia,"Cité Erriadh 6072, Zrig Eddakhlania, Tunisia",fsg.rnu.tn,+216 23 346 002
4439,Seinajoki University of Applied Sciences,Finland,"Kampusranta 11, 60320 Seinäjoki, Finland",seamk.fi,+358 20 1243000
4440,Kyungsung University,South Korea,"309 Suyeong-ro, Nam-gu, Busan, South Korea", ,
4441,AMIK New Media,Indonesia,"Jl. Tukad Barito Timur No. 5X, Panjer, Denpasar Selatan, Dauh Puri Klod, Denpasar Barat, Dauh Puri Klod, Kec. Denpasar Bar., Kota Denpasar, Bali 80224, Indonesia",newmed.ac.id,+62 813-3966-7272
4442,Chukyo University,Japan,"101-2 Yagotohonmachi, Showa Ward, Nagoya, Aichi 466-0825, Japan",chukyo-u.ac.jp,+81 52-835-7111
4443,SATEC @ W.A. Porter C.I.,Canada,"40 Fairfax Crescent, Scarborough, ON M1L 1Z9, Canada",schoolweb.tdsb.on.ca,+1 416-396-3365
4444,CentraleSupélec,France,"CentraleSupélec, 3 Rue Joliot Curie, 91190 Gif-sur-Yvette, France", ,
4445,Lac Hong Networking Academy,Vietnam,,,
4446,IUT des pays de I'Adour Universite de Pau,France,"Av. de l'Université, 64000 Pau, France",univ-pau.fr,+33 5 59 40 71 20,France
4447,ITIS Giuseppe Armellini Roma,Italy,"Largo Beato Placido Riccardi, 13, 00146 Roma RM, Italy",itisarmellini.edu.it,+39 06 1211 27360
4448,SecurTECH-CONSULTING SARL,Mali,,,
4449,Novokyibishevski Humanitarial Technological College,Russia,,,
4450,Shandong Agricultural University,China,"61 Daizong Ave, Taishan, Taian, Shandong, China, 271002",sdau.edu.cn,+86 538 824 1344
4451,Spojena skola Tvrdosin,Slovakia,"Medvedzie 133/1, 027 44 Tvrdošín, Slovakia",sstv.sk,
4452,"ТОО ""INTELLA""",Kazakhstan,"дом 29, Dinmukhamed Qonayev St, Astana 010000, Kazakhstan",intella.kz,+7 7172 28 00 82
4453,SED,Colombia,"Parque Industrial Gran Sabana, Tocancipá, Cundinamarca, Colombia",sed.international,+57 8614000
4454,Chipman Forest Avenue School,Canada,"33 Forest Ave, Chipman, NB E4A 1Z8, Canada",,
4455,Pan African Institute for Development-West Africa (PAID-WA),Cameroon,"Buea, Cameroon",paidafrica.org,+237233323415
4456,Collège La Boetie,France,"2 Rue Gabriel Tarde, 24200 Sarlat-la-Canéda, France",college-la-boetie.fr,+33 5 53 31 53 70,France
4457,Ibn Alhaytham high school,Israel,CF8J+6GG - الصفيا - Ajman - United Arab Emirates, ,
4458,National Institute of Technologies Training,Pakistan,"147-C Murree Road, Chowk, near lasania Restaurant 46000, Marir, Rawalpindi, Punjab 46000, Pakistan",nitt.pk,+92 317 1577797,English
4459,Fakultas Ilmu Komputer UI,Indonesia,"Jl. Prof. DR. Sudjono D. Pusponegoro, Pondok Cina, Kecamatan Beji, Kota Depok, Jawa Barat 16425, Indonesia",cs.ui.ac.id,+62 21 7863419,English
4460,Kolej Vokasional Miri,Malaysia,"Jalan Jee Foh 10, 98000 Miri, Sarawak, Malaysia",,
4461,Theodor-Litt-Schule,Germany,"Parkstraße 12-18, 24534 Neumünster, Germany",tls-nms.de,+49 4321 9424910,Germany
4462,Groupe ISM,Senegal,,,
4463,Instituto Tecnologico de Tlalnepantla,Mexico,"Av. Instituto Tecnológico s/n, La Comunidad, 54070 Tlalnepantla de Baz, Méx., Mexico",tlalnepantla.tecnm.mx,+525555653099
4464,FabLab Neuenstadt,Germany,"Öhringer Str. 24, 74196 Neuenstadt am Kocher, Germany",fablab-neuenstadt.de,+49 160 8546455,Germany
4465,Lokalna Akademija Telekoma Srbija,Serbia,"11000 Београд, Radivoja Koraća 4, Beograd, Serbia",telekom-nezavisnost.rs,+381 11 3447371,Suriname
4466,Majan University College,Oman,"Muscat, Oman", ,
4467,Instituto Tecnológico Sanmiguelense de Estudios Superiores A.C,Mexico,"Escuadron 201, Carretera San Miguel de Allende - Dr. Mora No. 10-Km. 0.5, Palmita de Landeta, San Miguel de Allende, Gto., Mexico",itses.edu.mx,+52 415 154 8484
4468,Amal colleges,Israel,,,
4469,مركز الحاسوب الحكومي - رام الله,Palestine,,,
4470,Departemen Fisika,Indonesia,"Jl. Raya Bandung Sumedang KM.21, Hegarmanah, Kec. Jatinangor, Kabupaten Sumedang, Jawa Barat 45363, Indonesia", ,+622284288828
4471,SATEC @ W.A. Porter C.I.,Canada,"40 Fairfax Crescent, Scarborough, ON M1L 1Z9, Canada",schoolweb.tdsb.on.ca,+1 416-396-3365
4472,Sahavith Business Administration Technological College,Thailand,,,
4473,Aichi Institute of Technology,Japan,"Yachigusa-1247 Yakusacho, Toyota, Aichi 470-0356, Japan",ait.ac.jp,+81 565-48-8121
4474,Jordan University of Science and Technology,Jordan,"3030, Ar-Ramtha, Jordan", ,
4475,IT Faculty,Libya,,,
4476,Sup'Management,Mali,"297, rue 214, Bamako, Mali",supmanagement.ml,+223 20 21 34 04,France
4477,Casa Seis - Desafios E6G,Portugal,"Av. Timor Lorosae 12, 2735-521 Agualva-Cacém, Portugal",,
4478,Gymnázium - Gimnázium,Slovakia,,,
4479,Омский государственный технический университет,Russia,"Prospekt Mira, 11, Omsk, Omsk Oblast, Russia, 644050", ,
4480,Construir Futuro,Peru,"C. Miguel Dasso 139, San Isidro 15073, Peru",construirfuturo.org,+51999022290
4481,SMK Namira Tech Nusantara Medan,Indonesia,,,
4482,Sena Girardot,Colombia,"Girardot, Cundinamarca, Colombia",senagirardot.blogspot.com.co,"854X+32 Girardot, Cundinamarca, Colombia"
4483,The Polytechnic Ibadan/Newage Solutions & Technologies Ltd,Nigeria,,,
4484,BSO Company,Kazakhstan,"ул. Тимирязева 42, корпус 15/3, Almaty 050008, Kazakhstan",bso.kz,+7 708 973 1005
4485,SCHOOL OF SIGNALS,Kenya,"Warai North Road, Nairobi, Kenya",,+254203884036
4486,Zespol Szkol Zawodowych nr 2 im. Powstancow Warszawy w Minsku Mazowieckim,Poland,,,
4487,KOLEJ VOKASIONAL PASIR MAS,Malaysia,"Jln Tendong, Kampung Manan, 17020 Pasir Mas, Kelantan, Malaysia",,
4488,Youth For Seva,India,"Beereshwar Nagar, Bank Colony, Konanakunte, Bengaluru, Karnataka 560062",youthforseva.org,072599 58595,English
4489,ITM,India,,,
4490,Collège du Bois d'Amour,France,"20 Rue du Bois d'Amour, 64140 Billère, France",ac-bordeaux.fr,+33 5 59 32 18 90,France
4491,ENAIP PIEMONTE,Italy,"Via del Ridotto, 5, 10147 Torino TO, Italy",enaip.piemonte.it,+39 011 217 9700,English
4492,"MAHILA INDUSTRIAL TRAINING INSTITUTE, JOTANA",India,,,
4493,THEi,Hong Kong,"133 Shing Tai Rd, Chai Wan, Hong Kong",thei.edu.hk,+85238908000
4494,Instituto Tecnológico de Querétaro,Mexico,"Av. Tecnológico s/n, Centro, 76000 Santiago de Querétaro, Qro., Mexico",itq.edu.mx,+524422274400
4495,INSTITUTO SUPERIOR TECNOLOGICO VICENTE ROCAFUERTE,Ecuador,"R476+7JF, Guayaquil 090514, Ecuador",,
4496,Powiatowy Zespół Szkół w Lędzinach,Poland,,,
4497,LibTechNet9,Liberia,,,
4498,Riara University,Kenya,"Nyayo Highrise, Raila Odinga Road, formerly, Mbagathi Way, Nairobi, Kenya",riarauniversity.ac.ke,+254 703 038000,English
4499,Veleučilište u Slavonskom Brodu,Croatia,"Ul. Dr. Mile Budaka 1, 35000, Slavonski Brod, Croatia",,+38535492800
4500,Centro Universitario ETAC/Campus Viveros,Mexico,"C. Viveros de Asís 96, Hab Viveros de la Loma, 54080 Tlalnepantla de Baz, Méx., Mexico",etac.edu.mx,+52 800 112 5428
4501,Universidad Nacional Pedro Ruiz Gallo,Peru,"Juan XXIII 391, Lambayeque 14013, Peru",unprg.edu.pe,+51 74 283146
4502,Liceum Ogólnokształcące im. M. Kopernika w Tarnobrzegu,Poland,"Stanisława Jachowicza 13, 39-400 Tarnobrzeg, Poland",lo.tarnobrzeg.pl,+48 15 822 16 04,Poland
4503,Liceo Industrial Benjamin Davila Larrain,Chile,"Santiago, Renca, Santiago Metropolitan Region, Chile", ,
4504,Centennial College,Canada,"941 Progress Ave, Scarborough, ON M1G 3T8, Canada",centennialcollege.ca,+1 416-289-5000
4505,Tsuruoka National College of Technology,Japan,"Dormitory, Sawada-104 Inooka, Tsuruoka, Yamagata 997-0842, Japan", ,
4506,Hansa-IT-Service,Germany,,,
4507,"The University of The West Indies, Open Campus, I.T. Academy",Trinidad and Tobago,"MJ22+FRW, Gordon St, Tunapuna, Trinidad & Tobago",open.uwi.edu,,English
4508,SMK Muhammadiyah 1 Kepanjen,Indonesia,"Jl. KH. Ahmad Dahlan No.34, Kepanjen, Kec. Kepanjen, Kabupaten Malang, Jawa Timur 65163, Indonesia",smkmuh1kepanjen.sch.id,+62341395451
4509,TechnoLAB-ISTA,Mali,,,
4510,Academy of Digital Technologies,Russia,,,
4511,IGPR,Romania,,,
4512,Apricot Education School System,Pakistan,"5264+W8C, Kalat Road, Block #3 Satellite Town, Quetta, Balochistan 87300, Pakistan", ,
4513,Cyber Security and Technology Crime Bureau,Hong Kong,"627 Canton Rd, Yau Ma Tei, Hong Kong",police.gov.hk,+852 3661 1653
4514,Тольяттинский государственный университет,Russia,,,
4515,Moscow School #1828,Russia,,,
4516,Altay State College,Russia,"Prospekt Lenina, 61, Barnaul, Altai Krai, Russia, 656049", ,
4517,Zespół Szkół Ponadgimnazjalnych Nr 5 w Zamościu,Poland,,,
4518,Fondation Orient Occident,Morocco,,,
4519,UIT Academy,Lebanon,F9Q6+GQ6 - Hamdan Bin Mohammed St - Al Danah - Zone 1 - Abu Dhabi - United Arab Emirates, ,
4520,"IES ""Los Cerros""",Spain,"C. Cronista Juan de la Torre, 0, 23400 Úbeda, Jaén, Spain",loscerros.org,+34 953 77 99 90
4521,IT Academy,Russia,"Varshavskoye Hwy, 47, корп. 4, 7 этаж, Moscow, Russia, 115230", ,
4522,Voronizh school,Ukraine,,,
4523,Collège Charles de Gaulle,France,"60 Av. Jean Mermoz, 57290 Fameck, France",ac-nancy-metz.fr,+33 3 87 17 95 43,France
4524,KOLEJ VOKASIONAL LAHAD DATU,Malaysia,"km 13, Jalan Sandakan, Lahad Datu, Malaysia",facebook.com,+60 89-884 957
4525,"INDUSTRIAL TRAINING INSTITUTE, PALANPUR",India,"5C4R+X2V, Industrial Training Institute, Palanpur, Gujarat 385001",,02742252250
4526,Universidad Tecnológica de Ciudad Juárez,Mexico,"Av. Universidad Tecnológica 3051, Col, Lote Bravo, 32695 Cd Juárez, Chih., Mexico", ,
4527,EPT,Senegal,"Q2WP+676, Thiès 21001, Senegal",ept.sn,+221 76 223 61 60
4528,Instituto Tecnológico Superior de Atlixco,Mexico,"C. Heliotropo No.1201, Unidad 8 Norte Nueva Xalpatlaco, Vista Hermosa, 74210 Atlixco, Pue., Mexico",atlixco.tecnm.mx,+52 244 446 2212
4529,Friedrich-Dessauer-Schule Limburg,Germany,"Blumenröder Str. 49, 65549 Limburg an der Lahn, Germany",fds-limburg.de,+49 6431 40920,Germany
4530,Centros Digitales Ares-Ayacucho,Peru,,,
4531,Zespół Szkół Ogólnokształcących nr 1 im. Jana Długosza,Poland,"Jana Długosza 5, 33-320 Nowy Sącz, Poland",dlugosz.edu.pl,+48184484020,Poland
4532,Uprava za telekomunikacije i informatiku GS VS,Serbia,,,
4533,UNID Tlalnepantla,Mexico,"Vía Dr. Gustavo Baz 2160, La Loma, 54060 Tlalnepantla de Baz, Méx., Mexico",unid.edu.mx,+52 55 2628 0334
4534,池州学院,China,"Guichi District, Chizhou, China, 247000", ,
4535,Państwowa Wyższa Szkoła Techniczno-Ekonomiczna w Jarosławiu,Poland,"Czarnieckiego 16, 37-500 Jarosław, Poland",pwste.edu.pl,+48166244640,Poland
4536,francais,Senegal,"89 rue Joseph Gomis, Dakar, Senegal",ifs.sn,+221 33 823 03 20
4537,Ивановский государственный университет Шуйский филиал,Russia,"Sovetskaya Ulitsa, 40, Shuya, Ivanovo Oblast, Russia, 155912",,
4538,"Federal Government Girls College, Minjibir",Nigeria,"FFVJ+639, 440221, Umuahia, Nigeria",fggcumuahia.sch.ng,+2347035546957
4539,Донецький національний технічний університет (ДонНТУ/DonNTU)),Ukraine,,,
4540,ГБОУ СПО Колледж предпринимательства №15,Russia,"Permskaya Ulitsa, 226, Perm, Perm Krai, Russia, 614068",pkps-perm.ru,+7 342 236-76-43,Russian Federation (the)
4541,Institution Legal Name: Yamamah Information Technology & Communication Systems (LLC),Libya,"Tripoli, Libya", ,
4542,Université Catholique de Lille,France,"60 Bd Vauban, 59800 Lille, France",univ-catholille.fr,+33 3 20 13 40 00,France
4543,Fundacion Universitaria Tecnologico Comfenalco,Colombia,"Cra. 44 #30a-91, España, Cartagena de Indias, Provincia de Cartagena, Bolívar, Colombia",tecnologicocomfenalco.edu.co,+57 605 6723700
4544,Lycée JEAN ZAY Auvergne,France,"21 Rue Jean Zay, 63300 Thiers, France",lyceejeanzay.net,+33 4 73 80 75 75
4545,CREDIS Cluj,Romania,,,
4546,Spojena skola nizna,Slovakia,"Hattalova 471, 027 43 Nižná, Slovakia",ssnizna.sk,+421 43/538 14 05
4547,Kyambogo University,Uganda,"Kyambogo Road, Kiwatule - Banda - Kyambogo Rd, Kampala, Uganda",kyu.ac.ug,+256 41 4287354
4548,Bibliothèque de Toulouse,France,"1 Rue de Périgord, 31000 Toulouse, France",bibliotheque.toulouse.fr,+33 5 62 27 66 66,France
4549,רמת גן,Israel,,,
4550,Zespół Szkół Technicznych im. T. Kościuszki w Leżajsku,Poland,,,
4551,Sri Aurobindo Institute of Technology Indore,India,"Indore-Ujjain Highway, near MR-10 crossing, Bhawrasla, Indore, Madhya Pradesh 453555",aurogroup.ac,096850 26677
4552,NAG Technology,Pakistan,"2 E1 syed, Shamshad Haider Rd, Block E 1 Gulberg III, Lahore, Punjab 54000, Pakistan", ,
4553,Heilongjiang agricultural college of vocational technology,China,"VG9G+3VC, Hulan District, Harbin, Heilongjiang, China, 150025",hljswkj.org.cn,+86 451 5686 0222
4554,IPSIA A. VOLTA - GUSPINI,Italy,"Via Antonio Banfi, 22, 09036 Guspini SU, Italy",iisvoltaguspini.edu.it,+39 070 970255
4555,Aktau KTL,Kazakhstan,,,
4556,Järvamaa Kutsehariduskeskus,Estonia,"Tallinna 46, Paide, 72720 Järva maakond, Estonia",jkhk.ee,+3725253736,Ethiopia
4557,Mbeya University of Science and Technology (MUST),Tanzania,"Chuo kikuu cha sayansi na teknolojia, Mbeya, Tanzania",mustnet.ac.tz,+255 25 250 2861,English
4558,I.E.S. Nuestra Sra. de los Remedios,Spain,,,
4559,South Eastern University of Sri Lanka,Sri Lanka,"7VW2+Q2M, Oluvil, Sri Lanka",seu.ac.lk,+94 672 255 168
4560,Lycée Val de Garonne,France,"22 Rue Ejea de Los Caballeros, 47200 Marmande, France",lyceevaldegaronne.com,+33 5 53 76 02 50
4561,"INDUSTRIAL TRAINING INSTITUTE, KHERALU",India,,,
4562,Instituto Tecnológico de León,Mexico,"Priv. Tecnologico S/n, Industrial Julian de Obregon, 37290 León, Gto., Mexico",itleon.edu.mx,"495F+M2 León, Guanajuato, Mexico"
4563,Student Cabinet,Pakistan,,,
4564,NGO_Syndicate of Applicators-Sohag Branch,Egypt,,,
4565,Instituto Tecnológico y de Estudios Superiores de Occidente,Mexico,"Anillo Perif. Sur Manuel Gómez Morín 8585, Santa María Tequepexpan, 45604 San Pedro Tlaquepaque, Jal., Mexico",iteso.mx,+52 33 3669 3434
4566,IIS Gaetano De Sanctis,Italy,,,
4567,Integrated Polytechnic Regional Center/South,Rwanda,"2494+8HR, Kigali, Rwanda",iprckigali.rp.ac.rw,+250784771228,English
4568,한양공업고등학교,South Korea,"299 Eulji-ro, Jung-gu, Seoul, South Korea", ,
4569,Hariri Foundation for Sustainable Human Development,Lebanon,"VGW3+4GH, Beirut, Lebanon", ,
4570,I Liceum Ogolnoksztalcace im. Powstancow S,Poland,,,
4571,Lord Selkirk Regional Comprehensive Secondary School,Canada,"221 Mercy St, Selkirk, MB R1A 2C8, Canada",lsrcss.lssd.ca,+1 204-482-6926
4572,VOS a SS Boskovice,Czechia,"Hybešova 982, 680 01 Boskovice, Czechia",vassboskovice.cz,+420511123101
4573,International Center of Bethlehem,Palestine,"P642+7WP, Avenue Paul Vi, St-Raymond",,
4574,Centros de Integración Juvenil Tlalpan,Mexico,"C. 2 123, San Buenaventura, Tlalpan, 14629 Ciudad de México, CDMX, Mexico",cij.gob.mx,+52 55 5485 9149
4575,UNRWA IT Partnerships and Innovation Section,Jordan,"UNRWA, Rashid Byouk St 14, Amman, Jordan",unrwa.org,+962 6 580 9100
4576,"Federal Government Girls College, Jalingo",Nigeria,"W8QX+R54, 660213, Howayi, Nigeria",,
4577,Berzeliusskolan,Sweden,"Gustav Adolfsgatan 25, 581 81 Linköping, Sweden",linkoping.se,+46 13 20 74 00
4578,Yunnan Industry and Commerce College,China,,,
4579,"National Institute of Technology, Tsuyama College",Japan,"624-1 Numa, Tsuyama, Okayama 708-8509, Japan",tsuyama-ct.ac.jp,+81 868-24-8200
4580,EFET Marrakech,Morocco,,,
4581,NSHM Group of Institutes,India,,,
4582,ГАОУ СПО г. Москвы Технологический колледж № 24,Russia,"16-Ya Parkovaya Ulitsa, 20, Moscow, Russia, 105484", ,
4583,The University of Hong Kong,Hong Kong,,,
4584,SENA Cali,Colombia,,,
4585,Universidad Politécnica de Amozoc,Mexico,,,
4586,TPCT's College of Engineering Osmanabad,India,"Solapur - Aurangabad Hwy, Osmanabad, Maharashtra 413501",coeosmanabad.ac.in,02472 251 011,English
4587,Moscow School #1797,Russia,,,
4588,"Faculty of Electronics, Telecommunications and Information Technology",Romania,"Bulevardul Iuliu Maniu 1-3, București 061071, Romania", ,
4589,Stredna odborna skola,Slovakia,,,
4590,Shanghai Donghai Vocational & Technical College,China,,,
4591,"VOŠ a SPŠ, Jičín",Czechia,"Pod Koželuhy 100, 506 01 Jičín, Czechia",prumyslovkajicin.cz,+420493532686
4592,Запорізький багатопрофільний ліцей №99,Ukraine,"Heroiv 93-i bryhady St, 13А, Zaporizhzhia, Zaporizhia Oblast, Ukraine, 69000", ,+380612249309
4593,Sidon Orphan Welfare Society Vocational Training Center,Lebanon,"H93G+4M3, Seraii Roundabout, Lebanon",orphanwelfare-lb.org,+9617722788
4594,Greta Bretagne Occidentale,France,,,
4595,"IT Centre, Devi Ahilya Vishwavidyalaya, Indore",India,"Nalanda Campus, RNT Marg, Chhoti Gwaltoli, Indore, Madhya Pradesh 452001",dauniv.ac.in,0731 252 7532,English
4596,TechnoLAB-ISTA,Mali,,,
4597,Institut de Tourisme,Lebanon,"Midan Dekwaneh, Lebanon",etstc-lb.com,+961 1 687 232
4598,Cegep Heritage College,Canada,"325 Boulevard de la Cité-des-Jeunes, Gatineau, Quebec J8Y 6T3, Canada", ,
4599,Centrum Szkolenia Łączności i Informatyki,Poland,"05-131, Juzistek 2, 05-131 Zegrze, Poland",cslii.wp.mil.pl,+48 26 188 33 12
4598,Cegep Heritage College,Canada,"325 Boulevard de la Cité-des-Jeunes, Gatineau, Quebec J8Y 6T3, Canada", ,
4599,Centrum Szkolenia Łączności i Informatyki,Poland,"05-131, Juzistek 2, 05-131 Zegrze, Poland",cslii.wp.mil.pl,+48 26 188 33 12
4600,IES CIRVIANUM DE TORELLO,Spain,"Carrer Ausiàs March, s/n, 08570 Torelló, Barcelona, Spain",agora.xtec.cat,+34 938 59 48 41
4601,Collèges Absie et Moncoutant,France,"5 Av. du Pré Byre, 79320 Moncoutant-sur-Sèvre, France",etab.ac-poitiers.fr,+33549726442
4602,IFOA Milano,Italy,"Via Giovanni Durando, 38, 20158 Milano MI, Italy",ifoa.it,+39 02 2670 5056
4603,INSTITUTO TECNOLOGICO DE ESTUDIOS SUPERIORES DE LOS CABOS,Mexico,"Plaza 3 Virgenes, Aguajitos Int.6, Guaymitas, 23483 Cabo San Lucas, B.C.S., Mexico",itesloscabos.edu.mx,+52 624 146 3586,Spain
4604,"INDUSTRIAL TRAINING INSTITUTE, MEHSANA",India,"204,G.I.D.C.- Phase-1, NR-Water tank, Modhera Rd, Mehsana, Gujarat 384002",,
4605,Aldea del Niño,Peru,"24A 144, Mazamari 12300, Peru",,
4606,Adolf-Reichwein-Schule,Germany,"Saarstraße 7, 61169 Friedberg (Hessen), Germany",ars-fb.de,+49603172350
4607,"Grup Scolar Electromures, Targu Mures",Romania,"Strada Livezeni 5, Târgu Mureș, Romania",,
4608,Zespol Szkol Zawodowych nr1,Poland,,,
4609,Hariri Foundation for Sustainable Human Development,Lebanon,"VGW3+4GH, Beirut, Lebanon", ,
4610,inSERir com Escolhas - E5G,Portugal,,,
4611,UNRWA IT Partnerships and Innovation Section,Jordan,"UNRWA, Rashid Byouk St 14, Amman, Jordan",unrwa.org,+962 6 580 9100
4612,Fast NU Karachi Campus,Pakistan,,,
4613,Educational Computer Center,Puerto Rico,"Bloque 123 # 25, Av. Roberto Clemente, Carolina, 00985, Puerto Rico",eccpr.com,+1 787-776-7230
4614,"METHODIST COMPREHENSIVE COLLEGE, SAGAMU",Nigeria,"6FR5RJRW+74F Offin, 6 shagamu Ogun, Sagamu, Nigeria",education.gov.ng,+234 903 000 9912,English
4615,datatech,Mali,,,
4616,INTEGRACION TECNOLOGICA DE SISTEMAS,Colombia,"Cra. 60a #11-15, Pampa Linda, Cali, Valle del Cauca, Colombia",itsltda.net,+576025137132,Spain
4617,ctrgo-dar,Russia,,,
4618,Moscow School #1375,Russia,,,
4619,Qualied College,Hong Kong,"2號 Kan Hok Ln, Tiu Keng Wan, Hong Kong",mkqc.edu.hk,+852 2706 6969
4620,GIATMARA Parit Buntar,Malaysia,"Jalan Pejabat, Kampung Permatang Tok Mahat, 34200 Parit Buntar, Perak, Malaysia",,
4621,Universidad de El Salvador,El Salvador,,,
4622,Pickering High School,Canada,,,
4623,Запорізький обласний центр професійної реабілітації інвалідів (Бердянськ),Ukraine,,,
4624,Mid Sweden University,Sweden,"Holmgatan, 852 30 Sundsvall, Sweden",miun.se,+46 10 142 80 00,El Salvador
4625,Faculté Privée Des Sciences de Gestion et de la Technologie UPES Megrine,Tunisia,"Face à la Gare Sidi Rézig, Sidi Rézig 2033, Tunisia",upes-megrine.com,+216 52 126 354
4626,Shapira High School,Israel,,,
4627,Japan Advanced Institute of Science and Technology,Japan,"1 Chome-1 Asahidai, Nomi, Ishikawa 923-1211, Japan",jaist.ac.jp,+81 761-51-1111
4628,New Horizons Hannover,Germany,"Hildesheimer Str. 265-267, 30519 Hannover, Germany",newhorizons-hannover.de,+49 511 69609810,English
4629,Zespol Szkol Elektronicznych,Poland,,,
4630,Zespół Szkół im. C. K. Norwida,Poland,"3 Maja 24, 13-300 Nowe Miasto Lubawskie, Poland",norwid.eu,+48564726020,Poland
4631,Nantes Y-nov Campus,France,"20 Bd Général de Gaulle, 44200 Nantes, France",ynov-nantes.com,+33 2 28 44 04 40,France
4632,IPSSCTPA E. Mattei,Italy,,,
4633,"Centro Integrado en Administración, Comercio e Informática Mª Ana Sanz",Spain,"C. Milagro, s/n, 31015 Pamplona, Navarra, Spain",mariaanasanz.es,+34848430530
4634,Université Catholique de l'Afrique de l'Ouest UCAO-UUCO Guinée,Guinea,"Coleah,Imprimerie, face au Street GYM, Magazins 15-16, Conakry, Guinea",,
4635,Mizan-Tepi University,Ethiopia,"21 Tepi bushira, Ethiopia",,
4636,Menorat HaMaor COLLEGE,Israel,,,
4637,"INDUSTRIAL TRAINING INSTITUTE, UNJHA",India,"QC6C+MW5, SH 130, Unjha, Gujarat 384170",,
4638,WWV Private Weiterbildungsakademie,Germany,,,
4639,Uniwersytet Śląski Wydział Nauk Ścisłych i Technicznych,Poland,"75 Pułku Piechoty 1/budynek L, 41-500 Chorzów, Poland",us.edu.pl,"7WVP+V6 Chorzów, Poland"
4640,Powiatowy Zespol Szkol Ponadgimnazjalnych nr 2,Poland,,,
4641,Universidad Politécnica de Tulancingo,Mexico,"Calle Ingenierías # 100, Huapalcalco, 43629 Tulancingo de Bravo, Hgo., Mexico",upt.edu.mx,+527757558202
4642,Universidad Nacional de Piura,Peru,"Urb. Miraflores S/N, Castilla, 20002, Peru",unp.edu.pe,+51 73 343181
4643,metropolitan university,Pakistan,"1-Km Defence Road،, near Bhuptian Chowk،, Lahore, Punjab, Pakistan", ,
4644,Odessa College of Economics and Social Work,Ukraine,,,
4645,Universitas Ibn Khaldun Bogor,Indonesia,,,
4646,"LEGTPA Armand Fallières, Nouvelle-Aquitaine",France,,,
4647,東京情報クリエイター工学院専門学校,Japan,"2 Chome-4-11 Nishikanda, Chiyoda City, Tokyo 101-8351, Japan",,
4648,ISTA JBEL LAKHDAR MARRAKECH,Morocco,"J2H4+83V، ISTA Jbel Lakhder MARRAKECH المعهد المتخصص للتكنولوجيا التطبيقية الجبل الاخضر, Rue Jbel Lakhdar, Marrakesh, Morocco",ofppt.ma,+212 5243-86771,France
4649,80_OSMANIYE,Turkey,,,
4650,Académie Locale ENI - ABT,Mali,"410 Ave Al Quds, Bamako, Mali", ,
4651,Moscow School #1412,Russia,,,
4652,Institucion Universitaria Antonio Jose Camacho,Colombia,"Av. 6 Nte. #29N-25, San Vicente, Cali, Valle del Cauca, Colombia",uniajc.edu.co,+57 26652828,Spain
4653,Oyunlag Secondary School,Mongolia,"WW8Q+R7M, Энхтайвны Өргөн Чөлөө 43/3, Ulaanbaatar 13370, Mongolia",oyunlag.edu.mn,+976 7575 5050
4654,St. Augustine University Of Tanzania,Tanzania,"malimbe-Luchelele, Tanzania",saut.ac.tz,+255 736 200 943,English
4655,Lycée Aristide Briand,France,"2 Rue Pierre Semard, 27000 Évreux, France",briand-lyc.spip.ac-rouen.fr,+33 2 32 23 69 00
4656,ISTA IFRANE,Morocco,,,
4657,Gymnázium Stropkov,Slovakia,"Konštantínova 642/26, 091 01 Stropkov, Slovakia",gymstrop.edupage.org,+421 54/718 13 19
4658,UNIDAD EDUCATIVA SALESIANA MARIA AUXILIADORA,Ecuador,"4X2X+MWF, entre y, Simón Bolívar &, Vargas Machuca, Cuenca 010107, Ecuador",uesmacuenca.edu.ec,+593 7-282-2138
4659,IES Sant Vicent Ferrer,Spain,"Carrer de l'Almirall Cadarso, 22, 46006 València, Valencia, Spain",mestreacasa.gva.es,+34961206175
4660,Panyapiwat Institute of Management,Thailand,"85 Thanon Chaeng Watthana, Tambon Bang Talat, Pak Kret District, Nonthaburi 11120, Thailand", ,
4661,Запорізька ЗОШ №91,Ukraine,,,
4662,"GOD'S GRACE ACADEMY, IJEBU-ODE. OGUN STATE",Nigeria,"6FR5VV8G+C2F, 2 odogbolu Ogun, 120104, Ijebu Ode, Nigeria",education.gov.ng,+234 903 000 9912,English
4663,ISFEC Bretagne,France,"6 Bd Emmanuel Mounier, 35700 Rennes, France",isfec-bretagne.org,+33299274159
4664,Zelenodolsk Gymnasium #3,Russia,,,
4665,IES SERRA PERENXISA,Spain,"Carrer de la Corona D'Arago, 1, 46900 Torrent, Valencia, Spain",mestreacasa.gva.es,+34961206090
4666,Colegio Tecnico Granadilla,Costa Rica,"WXJQ+3P4, San José Province, Granadilla, Costa Rica", ,
4667,ITC Cesare Pavese,Italy,"Via Domenico Fontana, 176, 80131 Napoli NA, Italy",istitutopavese.it,+390815457087
4668,Zespół Szkół Ogólnokształcących i Technicznych,Poland,"Antoniuk Fabryczny 1, 15-762 Białystok, Poland",zsoit.bialystok.pl,+48 85 653 00 73
4669,IES Vicente Núñez,Spain,"Calle Miguel de la Quadra Salcedo, 2, 14920 Aguilar de la Frontera, Córdoba, Spain",juntadeandalucia.es,+34957699631,Spain
4670,Berufsbildende Schulen Meppen,Germany,"Nagelshof 83, 49716 Meppen, Germany",bbs-meppen.de,+49 5931 80401
4671,"INDUSTRIAL TRAINING INSTITUTE, BALASINOR",India,"W8RP+88M, Balasinor - Sevaliya Rd, Kalupur, Balasinor, Gujarat 388235",,
4672,Polyvalente LJR,Canada,"435 Main St, Shediac, NB E4P 0S6, Canada",ecole.district1.nbed.nb.ca,+1 506-533-3314
4673,PZS Lędziny,Poland,,,
4674,January 2013 test Academy,Mexico,,,
4675,Fundacja Centrum Nowych Technologii,Poland,,,
4676,Educational Synergy,Pakistan,"Rafi Bungalows Bagh e Ibrahim Society Shah Faisal Colony, Karachi, Karachi City, Sindh 75230, Pakistan", ,
4677,Békéscsabai Belvárosi Általános Iskola és Gimnázium,Hungary,"Békéscsaba, Haán Lajos u. 2-4, 5600 Hungary",belvarbcs.hu,+36 66 453 353
4678,Department of Physics IPB,Indonesia,"Kampus IPB, Jl. Raya Dramaga, Babakan, Kec. Dramaga, Kabupaten Bogor, Jawa Barat 16680, Indonesia",ipb.ac.id,+62 251 8622642,English
4679,Pyt-Yah School #1,Russia,"Komsomol'skaya Ulitsa, Lyantor, Khanty-Mansi Autonomous Okrug, Russia, 628449", ,
4680,Moscow School #1448,Russia,,,
4681,Kunming University,China,"China, Yunnan, Kunming, Guandu District, 浦新路2号昆明学院 邮政编码: 650208",kmu.edu.cn,+86 871 6509 8086,English
4682,Albiruni institite for science and language,Israel,"Brandeis St 17, Tel Aviv-Yafo, Israel",nyu.edu,"3QVP+6Q Tel Aviv-Yafo, Israel"
4683,IntelliSys,Mali,"126, 2nd Floor, The Mall Rd, Kingsway Camp, GTB Nagar, New Delhi, Delhi 110009",vdlcd.com,072596 40017
4684,The Information Science College,Japan,,,
4685,ГПОУ ЧТОТиБ,Russia,"Ulitsa Ivana Babushkina, 66, Moscow, Russia, 117292",,
4686,ГБОУ Школа №1557,Russia,"Zelenograd, Moscow, Russia, 124482", ,
4687,Pontificia Universidad Javeriana Cali,Colombia,,,
4688,University of Alberta,Canada,"116 St & 85 Ave, Edmonton, AB T6G 2R3, Canada", ,
4689,SPŠE Piešťany,Slovakia,,,
4690,Mother Teresa High School,Canada,"440 Longfields Dr, Nepean, ON K2J 4T1, Canada",teh.ocsb.ca,+1 613-823-1663
4691,Spanish Test Academy,Spain,"48, Hanuman Rd, Hanuman Road Area, Connaught Place, New Delhi, Delhi 110001",nuevadelhi.cervantes.es,011 4368 1900
4692,Baltasi Gymnasium,Russia,,,
4693,ISOC Kazakhstan,Kazakhstan,,,
4694,Загальноосвітній багатопрофільний НВК №106,Ukraine,"Rubana St, 9, Zaporizhzhia, Zaporizhia Oblast, Ukraine, 69000",zzbnvk106.pp.ua,+380612366930,Russian Federation (the)
4695,National Taiwan University of Science and Technology,Taiwan,"No. 43號, Section 4, Keelung Rd, Da’an District, Taipei City, Taiwan 106",ntust.edu.tw,+886 2 2733 3141
4696,"EXAE Santiago, Centro de Educacion Continuada y Ejecutiva",Dominican Republic,"F896+X49, Av. Estrella Sadhalá, Santiago De Los Caballeros 51000, Dominican Republic",exae.edu.do,+1 809-583-9562
4697,Universitas Prasetiya Mulya,Indonesia,"Jl. R.A. Kartini, RT.14/RW.6, Cilandak Bar., Kec. Cilandak, Kota Jakarta Selatan, Daerah Khusus Ibukota Jakarta 12430, Indonesia",prasetiyamulya.ac.id,+62 21 7511126,Indonesia
4698,Lampang Rajabhat University,Thailand,"119 หมู่ 9 ต ชมพู อ เมือง 1037, Chomphu, Mueang Lampang District, Lampang 52100, Thailand", ,
4699,AMA Computer College - Davao,Philippines,"123 General Malvar St, Poblacion District, Davao City, 8000 Davao del Sur, Philippines",amacollege.amaes.edu.ph,+63 82 221 5193
4700,ITI F. Giordani (CE),Italy,,,
4701,ZST,Poland,"al. Jerozolimskie 212A, 02-486 Warszawa, Poland",zstgroup.pl,+48 22 534 30 00,Poland
4702,IESTP JOSE PARDO,Peru,"Av. Miguel Grau 620, La Victoria 15033, Peru",jpardo.edu.pe,+5113304428
4703,CUCienéga,Mexico,"Av. Universidad 1115, Lindavista, 47820 Ocotlán, Jal., Mexico",cuci.udg.mx,+523929259400,Spain
4704,CIP Donapea IIP,Spain,"Calle Donapea, s/n, 31009 Pamplona, Navarra, Spain",educacion.navarra.es,+34 948 19 86 53,Spain
4705,CIFP Villa de Aguimes,Spain,"Polígono Residencial de Arinaga, C. Alcorac, 50, 35118 Agüimes, Las Palmas, Spain",cifpvilladeaguimes.es,+34 928 18 89 49
4706,Universidad Continental,Peru,"Av San Carlos 1980, Huancayo 12000, Peru",ucontinental.edu.pe,+51 64 481430
4707,"INDUSTRIAL TRAINING INSTITUTE, DIVDA COLONY",India,"7R4W+XXH, GJ SH 2A, Limbhola, Gujarat 389250", ,
4708,ESKISEHIR OSMANGAZI UNIVERSITY,Turkey,,,
4709,Collège SADI CARNOT,France,,,
4710,Sekolah Vokasi Institut Pertanian Bogor,Indonesia,"Jl. Kumbang No.14, RT.02/RW.06, Babakan, Kecamatan Bogor Tengah, Kota Bogor, Jawa Barat 16128, Indonesia",sv.ipb.ac.id,+622518329101
4711,Universidad Tecnologica de Tulancingo,Mexico,"Av. Ahuehuetitla 301, Reforma la Presa, 43642 Tulancingo de Bravo, Hgo., Mexico",utectulancingo.edu.mx,+527712474026
4712,INSTITUTO TECNOLÓGICO DE TORREÓN,Mexico,"Torreón - San Pedro De las Colonias KM 7.5, Ejido Ana, 27170 Torreón, Coah., Mexico",ittorreon.edu.mx,+52 871 750 7199
4713,Kwangwoon University,South Korea,"20 Gwangun-ro, Nowon-gu, Seoul, South Korea", ,
4714,Liaoning IT Vocational Education Group,China,"China, Liaoning, Shenyang, Huanggu District, Xihe St, 8号-10 邮政编码: 110032",,
4715,Saint-Petersburg College of Information Technologies,Russia,,,
4716,Lónyay Menyhért Baptista Szakgimnázium és Szakközépiskola,Hungary,,,
4717,Advanced Technologies Academy,Kosovo,"Nazim Gafurri 31, Prishtina 10000",abc-softwaredev.com,+383 49 551 524
4718,Daghestan State Institute of National Economy,Russia,"Ulitsa Atayeva, 5, Makhachkala, Republic of Dagestan, Russia, 367008", ,
4719,Samara state college,Russia,,,
4720,IIS Campus dei Licei Massimiliano Ramadù,Italy,"Via Rimini, 1, 04012 Cisterna di Latina LT, Italy",iisramadu.edu.it,+390696873133
4721,National University of Mongolia,Mongolia,"WWF9+6H6, Ulaanbaatar 14200, Mongolia", ,
4722,Federico II Apple iOS Academy,Italy,"H89G+CG8, Sector 38, Noida, Uttar Pradesh 201301",itunes.apple.com,07207666000
4723,Онлайн-школа SkillFactory,Russia,,,
4724,Moscow School #949 - CA,Russia,,,
4725,Yokohama National University,Japan,"79-1 Tokiwadai, Hodogaya Ward, Yokohama, Kanagawa 240-8501, Japan",ynu.ac.jp,+81 45-339-3014
4726,INSTITUTO UNIVERSITARIO POLITECNICO SANTIAGO MARINO-Valencia,Venezuela,,,
4727,Pontificia Universidad Javeriana Cali,Colombia,,,
4728,Stredná priemyselná škola technická Martin,Slovakia,"Ladislava Novomeského 5/24, 036 36 Martin-Záturčie, Slovakia",spsmt.sk,+421 43/413 38 11
4729,Babes-Bolyai University,Romania,"Strada Mihail Kogălniceanu 1, Cluj-Napoca 400347, Romania",ubbcluj.ro,+40 264 405 300
4730,"Bangkok University, School of Engineering",Thailand,"2JR6+38F, Unnamed Road, Khlong Nueng, Khlong Luang District, Pathum Thani 12120, Thailand",,
4731,Instituto de Desarrollo de Talento en Tecnologías de la Información,Mexico,"Calle 12 And. de Dolores Guerrero 226-Int 102, Coapa, Culhuacan CTM VIII, Coyoacán, 04910 Ciudad de México, CDMX, Mexico",,
4732,Escuela Primaria Ricardo Flores Magón,Mexico,"Sebastián Trejo, Santiago Sur, Tláhuac, 13360 Ciudad de México, CDMX, Mexico",,
4733,Dilla University,Ethiopia,"C7FH+PJ6, Halo, Ethiopia",,
4734,Academia do Centro Provincial de Recursos Digitais de Niassa,Mozambique,,,
4735,Elly-Heuss-Realschule,Germany,,,
4736,Colegio Tecnico Profesional Siquirres,Costa Rica,,,
4737,ZS 3 Wadowice,Poland,,,
4738,Thoren Innovation School Stockholm,Sweden,"Isafjordsgatan 39, 164 40 Kista, Sweden",,
4739,Texas College of Management and IT,Nepal,"Kathmandu 44600, Nepal", ,
4740,Neve hadassah,Israel,,,
4741,CITE Technical Institute Inc.,Philippines,"CITE Technical Institute, Inc., Purok 2 Brgy, Cebu City, 6000 Cebu, Philippines",cite.edu.ph,+63 32 346 1611
4742,BILFEN HIGH SCHOOL,Turkey,,,
4743,ITIS G. Feltrinelli,Italy,,,
4744,Powiatowy Zespół Szkół nr 3 im. ks. Edmunda Roszczynialskiego w Wejherowie,Poland,,,
4745,Universidad Peruana Unión,Peru,"Carretera Central Km 19.5 Ñaña, Chosica, Peru",upeu.edu.pe,+51 1 6186300
4746,Chiang Mai Rajabhat University,Thailand,,,
4747,Instituto Santa Inés,Peru,,,
4748,I.E.S. Jacarandá,Spain,"C. Gaspar Sanz, 1, 29140 Málaga, Spain",iesjacaranda.com,"MF8X+XF Málaga, Spain"
4749,QA July Test Academy,Canada,"S - 11, 2nd Floor, H25, H Block Xenon Spaces, Sector 63 Landmark - Noida Electronic City Metro Station, Noida, Uttar Pradesh 201301",pharmastate.academy,085878 74143
4750,Universitas Binaniaga Indonesia,Indonesia,,,
4751,Städtische Berufsschule für Informationstechnik München,Germany,"Riesstraße 34, 80992 München, Germany",bsinfo.eu,+49 89 23385200,Germany
4752,Moscow School #1420,Russia,,,
4753,Asian Institute of Computer Studies - GMA,Philippines,"RN, Shaw Blvd, San Antonio, Pasig, 1600 Metro Manila, Philippines",aics.edu.ph,,English
4754,"INDUSTRIAL TRAINING INSTITUTE, KHANPUR",India,,,
4755,Collège Les Violettes,France,"3 Av. des Pins, 31140 Aucamville, France",ecollege.haute-garonne.fr,+33 5 62 75 94 10,France
4756,Cégep de Sherbrooke,Canada,"475 Rue du Cégep, Sherbrooke, QC J1E 4K1, Canada",cegepsherbrooke.qc.ca,+1 819-564-6350
4757,Powiatowe Centrum Kształcenia Zawodowego i Ustawicznego w Wodzisławiu Śląskim,Poland,,,
4758,НГТУ,Russia,"Ulitsa Nemirovicha-Danchenko, 136, Novosibirsk, Novosibirsk Oblast, Russia, 630087",nstu.ru,+7 383 346-02-31
4759,Erdemnet Networking Training Center,Mongolia,"62, A Block, Sector 2, Noida, Uttar Pradesh 201301", ,
4760,ITT Cerulli,Italy,,,
4761,Univerisidad Panamericana (UPANA),Guatemala,,,
4762,Escuela Especializada en Ingeniería ITCA-FEPADE,El Salvador,"MPFC+HFV, Carr. Panamericana, Santa Tecla, El Salvador",itca.edu.sv,+503 2132 7400,Spain
4763,Moscow College of Technical Fire and Rescue #57,Russia,,,
4764,Moscow School #1569,Russia,,,
4765,Technical Secondary School of Woodworking in Zvolen,Slovakia,,,
4766,Corporacion Universitaria Centro Superior,Colombia,"Cl. 14 Nte. #8N-35, Granada, Cali, Valle del Cauca, Colombia",unicuces.edu.co,+5726601011
4767,Université Simon Kimbangu - Institut Supérieur d'Informatique et Gestion (I.S.I.G),Republic of the Congo,"12 Rue de la 8ème Armée, Makiso, Kisangani, Tshopo, Congo - Kinshasa",,+243897373516
4768,Facultatea de Automatică şi Calculatoare,Romania,"Splaiul Independenței 313, București, Romania", ,
4769,FORSWITCH NETWORKING ACADEMY,Nigeria,"B No1, along Open university, Gyel, off Bukuru Expy, Jos, Nigeria",netacad.com,+234 909 233 9910,English
4770,Южно-Казахстанский государственный педагогический университет,Kazakhstan,"Baytursynov St 13, Shymkent, Kazakhstan",okmpu.kz,+7 7252 21 29 21
4771,Zespół Szkół Zawodowych nr 2 im. Powstańców Warszawy,Poland,"ul. gen, Generała Kazimierza Sosnkowskiego 43, 05-300 Mińsk Mazowiecki, Poland",mechanik.home.pl,+48 25 759 34 77
4772,Camara Education Limited,Uganda,"XM4F+PM, Mombasa, Kenya",camara.org,+254 770 400703,English
4773,Lebanese University FS V,Lebanon,"RGHC+4PR, Beirut, Lebanon", ,
4774,ISHA Computer,India,"15 Shakti Society, Ghatlodiya, Ahmedabad, Gujarat 380061",ishacomputer.com,"2G6W+GW Ahmedabad, Gujarat"
4775,Mutah University IT,Jordan,"Street, Mu'tah, Jordan", ,
4776,I.I.S. “N. Miraglia”,Italy,"Via Provinciale, Lauria, PZ 85044, Italy",iismiraglialauria.edu.it,+390973823966
4777,Thepsatri Rajabhut University,Thailand,"อําเภอ, 321 Narai Maharach Rd, Thale Chup Son, เมือง, Lopburi 15000, Thailand", ,
4778,MANTIA,Spain,,,
4779,"Faculty of Computer Science,Guangdong University of Education",China,,,
4780,Politecnico di Milano,Italy,"Piazza Leonardo da Vinci, 32, 20133 Milano MI, Italy",polimi.it,+390223991,Italy
4781,The British College,Nepal,"Trade Tower, Thapathali Road, Kathmandu 44600, Nepal", ,
4782,Universidad Inca Garcilaso de la Vega,Peru,"Av. Elmer Faucett 1627, Bellavista 07011, Peru",,+5115611850
4783,Colegio de Bachilleres del Estado de Quintana Roo Cancun3,Mexico,"Calle 21, Region 91 Manzanas 56 y 57 Nuevos, Horizontes, 77516 Cancún, Q.R., Mexico",cobaqroo.edu.mx,+529988885066
4784,Zespol Szkol Zawodowych,Poland,,,
4785,BFW Leipzig gGmbH,Germany,,,
4786,Moscow School #463,Russia,,,
4787,كلية تدريب قلنديا,Palestine,,,
4788,"Комунальний заклад ""Середня загальноосвітня школа №10"" Кам'янської міської ради",Ukraine,"Anoshkina Ave, 121, Kamianske, Dnipropetrovsk Oblast, Ukraine, 51900", ,+380569233383
4789,"INDUSTRIAL TRAINING INSTITUTE, LUNAWADA",India,"SH-5, Sonela Rd, Lunawada, Gujarat 389230",,
4790,"Северо-Кавказский институт бизнеса, инженерных и информационных технологий",Russia,"Stavropol'skaya Ulitsa, 36 к. 2, Cherkessk, Karachay-Cherkessia, Russia, 369001", ,
4791,BevFacey,Canada,"99 Colwill Blvd, Sherwood Park, AB T8A 4V5, Canada", ,
4792,ITI Thaltej(women),India,"17/18, Mahila Industrial Trg, Tltj, Tltj, Ahmedabad, Gujarat 380054",,
4793,Universidad Politécnica de Atlacomulco,Mexico,"Carretera Atlacomulco San José Toxi Km. 5 Santo Domingo Shomeje, 50465 Atlacomulco, Méx., Mexico",upatlacomulco.edu.mx,+52 722 454 0156
4794,Directia Generala de Protectie Interna,Romania,"Intrarea Răzoare nr. 5, București 060109, Romania",,
4795,Alcaldía Municipal de Tecoluca,El Salvador,"G6P9+XMV, Tecoluca, El Salvador",alcaldiadetecoluca.gob.sv,+503 2302 8000
4796,Fundacid,Venezuela,"6X5P+8MR, Valencia 2001, Carabobo, Venezuela",,
4797,TopEdu LTD,Israel,"כנות, כפר הנוער כנות, Israel",topedu.co.il,+972 77-757-3393
4798,"Escuela Militar de Aviación ""Marco Fidel Suárez""",Colombia,"Cra. 8 #5867, Cali, Valle del Cauca, Colombia",emavi.edu.co,+57 24441639
4799,ГБОУ Школа №1786,Russia,"Ulitsa Admirala Lazareva, 77, Moscow, Russia, 117041", ,
4800,Stredná priemyselná škola technická,Slovakia,"6, Hviezdoslavova 444, 052 01 Spišská Nová Ves, Slovakia",strojsnv.sk,
4801,Academia do Centro de Processamento de Dados de Tete,Mozambique,,,
4802,"МБОУ ""Большеатнинская СОШ""",Russia,,,
4803,Zespół Szkół Centrum Kształcenia Rolniczego,Poland,,,
4804,NITDA-HUK POLYTECHNIC ACADEMY,Nigeria,,,
4805,"Institute of Technology, Nirma University",India,"Sarkhej - Gandhinagar Hwy, Gota, Ahmedabad, Gujarat 382481",nirmauni.ac.in,079 7165 2000,English
4806,Centre Universitaire Professionnalisé (CUP),Côte d'Ivoire,"25 bp 1652 Abidjan 25, Côte d’Ivoire",cup-ci.org,+225 07 07 98 5000
4807,Lebanese University FSEG III,Lebanon,"VGPH+GMF, Beirut, Lebanon",ul.edu.lb,+961 1 201 766,Argentina
4808,Berufliches Schulzentrum Kulmbach,Germany,"Georg-Hagen-Straße 35, 95326 Kulmbach, Germany",bsz-kulmbach.de,+4992216930,Germany
4809,Мариупольский машиностроительный колледж,Ukraine,"87500, Vuzivs'ka St, 1, Mariupol, Donetsk Oblast, Ukraine",mt-pgtu.at.ua,+380979169303
4810,"Department of computer science and technology, Zhuhai college of Jilin University",China,,,
4811,Nepalgunj College,Nepal,,,
4812,Ecole Supérieure Polytechnique Antsiranana,Madagascar,"Lazaret CUR Antsiranana, 201, Madagascar",esp-antsiranana.mg,+261208292596
4813,Integrovana stredni skola - Centrum odborne pripravy Valasske Mezirici,Czechia,,,
4814,BSZ 7 Leipzig,Germany,"An d. Querbreite 8, 04129 Leipzig, Germany",bsz7-leipzig.de,+49341904530
4815,Instituto de Emprendedores Usil,Peru,"Jirón Jose Galvez 386, Magdalena del Mar 15086, Peru",institutoemprendedores.pe,+51 3171033
4816,Gimnazjum nr 2,Poland,"Reymonta 5, 46-100 Namysłów, Poland",sp2namyslow.pl,+48 77 410 13 77
4817,Cherkassy School №28,Ukraine,,,
4818,Inadeco,Spain,"C. Teodoro Cuesta, 5, 33207 Gijón, Asturias, Spain",inadeco.es,+34 985 17 14 21
4819,"БПОУ ВО ""Великоустюгский многопрофильный колледж""",Russia,,,
4820,IT Network Cibinong,Indonesia,,,
4821,كلية مجتمع المرأة برام الله,Palestine,"Al-Tireh Street, Ramallah, West Bank, Ramallah",rwtc.edu.ps,+970 2 295 6533
4822,Supdeco Technologie,Senegal,"7 Av. Faidherbe, Dakar 21354, Senegal",supdeco.sn,+221 33 849 69 19
4823,EIPS - Salisbury Composite High School & Continuing Education,Canada,,,
4824,Mahila ITI Gandhinagar,India,"near LDRP College Campus Sector No. 15, Gandhinagar, Gujarat 382016",gujarat.gov.in,094275 26948
4825,FundaCID,Venezuela,"6X5P+8MR, Valencia 2001, Carabobo, Venezuela",,
4826,MSDF 2nd Service School,Japan,"無番地 Tauraminatocho, Yokosuka, Kanagawa 237-0071, Japan",mod.go.jp,+81 46-822-3500
4827,ST Ricerca,Italy,,,
4828,Test Academy Revised DBA 04/30/15,Uganda,,,
4829,brainymotion AG,Germany,,,
4830,"Lycée Jean Perrin, Reze, Pays de Loire",France,"20 Rue du Château de Rezé, 44400 Rezé, France",paysdelaloire.e-lyco.fr,+33240324400
4831,Tapa Gümnaasium,Estonia,"Pargi 12, Tapa, 45106 Lääne-Viru maakond, Estonia",tapagymnaasium.kovtp.ee,+372 322 2311
4832,Trnavska univerzita v Trnave,Slovakia,"Priemyselná 2680/4, 918 43 Trnava, Slovakia", ,
4833,Academia do Centro de Processamento de Dados de Inhambane,Mozambique,,,
4834,Prime Innovation Institute of Technology,Nigeria,"22 Yomi Ajetunmobi Avenue, off Alfa bus stop, sangotedo Ajah, Lekki - Epe Expy, Aja, Lagos, Nigeria",piit.com.ng,+234 810 976 4557
4835,Zespol Szkol Ponadgimnazjalnych w Zloczewie,Poland,"Szeroka 1/7, 98-270 Złoczew, Poland",zspzloczew.weebly.com,+48438202212
4836,İBRAHİM ÖZAYDIN TEKNİK VE ENDÜSTRİ MESLEK LİSESİ,Turkey,,,
4837,Zespol Szkol i Przedszkola w Tarnawatce - Publiczne Gimnazjum w Tarnawatce,Poland,"Lubelska 62, 22-604 Tarnawatka, Poland",zsip.cal24.pl,+48 84 533 35 55
4838,Agryz Gymnasium #1,Russia,,,
4839,"ERR Technologie, Limousin",France,,,
4840,Eastern Visayas State University Carigara Campus,Philippines,"8P34+8M7, Barugohay Norte, Carigara, Leyte, Philippines", ,
4841,Ghana- India Kofi Annan Centre of Excellence in ICT,Ghana,,,
4842,Far East University,Taiwan,"No. 49號, Zhonghua Rd, Xinshi District, Tainan City, Taiwan 744", ,
4843,British University Vietnam,Vietnam,"Lô GĐ-01, Khu đô thị Ecopark, Hưng Yên, Vietnam",buv.edu.vn,+84 96 662 99 09,English
4844,IES Don Bosco (Albacete),Spain,"P.º de la Cuba, 43, 02006 Albacete, Spain",iesdonbosco.com,+34967215405
4845,Zespół Szkół w Sokółce,Poland,"Adama Mickiewicza 11, 16-100 Sokółka, Poland",liceumsokolka.pl,+48 85 711 25 74
4846,Instituto Cuatrovientos,Spain,,,
4847,Instituto San Ignacio de Loyola,Peru,"Av. la Fontana 550, La Molina 15024, Peru",usil.edu.pe,+51 1 3171000
4848,ADAM DE CRAPONNE,France,,,
4849,Greta des Yvelines-IDF,France,"1 Rue des Frères Lumière, 78370 Plaisir, France",greta-yvelines.fr,+33 1 30 85 78 78,France
4850,Ліцей № 52 ім. М. Лобачевського Львівської міської ради,Ukraine,,,
4851,TOLOSALDEA GLHI,Spain,,,
4852,الكلية الجامعية للعلوم التربوية وكلية مجتمع رام الله,Palestine,"V6V3+J24, Ramallah",,
4853,SSIG,Switzerland,"# 402, 4th Floor, Global Foyer Bldg, Haryana 122002",sig.biz,"F36W+54 Gurugram, Haryana"
4854,IPEC de Barva,Costa Rica,"300 metros de la Iglesia Católica de Barva de Heredia Carretera a, Heredia, Barva, 40201, Costa Rica",ipec-barva.com,+506 2238 2438
4855,LANITIO B LYCEUM,Cyprus,"M2QQ+PWM, Limassol, Cyprus",,
4856,Uganda Christian University,Uganda,,,
4857,ISTA HAY SALAM SALE,Morocco,"26P8+53J, Salé, Morocco",,
4858,Mongolian School of Networking,Mongolia,"Бага тойруу 34, Sukhbaatar 14191, Mongolia",must.edu.mn,+976 11 32 3579
4859,"INDUSTRIAL TRAINING INSTITUTE, SARKHEJ",India,"XGH2+HCQ, Sarkhej, Ahmedabad, Gujarat 380055",,
4860,"INDUSTRIAL TRAINING INSTITUTE, VIRPUR",India,,,
4861,Fundación Esplai - Ciudadanía Comprometida,Spain,"C. de Latina, 21, 28047 Madrid, Spain",fundacionesplai.org,+34 911 68 16 86
4862,Moscow College of Polytechnics #8,Russia,,,
4863,ГБОУ СОШ №2094,Russia,"Ulitsa Salar'yevskaya, 14, Moscow, Russia, 119297",,
4864,"Lycée Le Mans Sud, Le Mans, Pays de Loire",France,"128 Rue Henri Champion, 72000 Le Mans, France",lemans-sud.e-lyco.fr,+33 2 43 86 24 16
4865,IEMS ITC-Central-ITC,Mexico,,,
4866,Universidad Libre,Colombia,"Cl. 8 #580, Bogotá, Colombia",unilibre.edu.co,+57 13821000,Spain
4867,SPS dopravna Trnava,Slovakia,"Študentská 3585/23, 917 45 Trnava, Slovakia",spsdtt.edupage.org,+421 33/552 11 61
4868,Academia do Centro de Processamento de Dados de Gaza,Mozambique,,,
4869,Tartu Ülikool,Estonia,,,
4870,Universidade da Beira Interior,Portugal,"Universidade da Beira Interior, R. Marquês de Ávila e Bolama, 6201-001 Covilhã, Portugal",ubi.pt,+351 275 319 700
4871,"Collège Voltaire, Limousin",France,,,
4874,Universitas Internasional Batam,Indonesia,"Baloi-Sei Ladi, Jl. Gajah Mada, Tiban Indah, Kec. Sekupang, Kota Batam, Kepulauan Riau 29426, Indonesia",,+627787437111
4875,INTECAP Zacapa,Guatemala,"XF9G+7VR Instituto Adolfo V. Hall East, Calzada, Zacapa, Guatemala",intecap.edu.gt,+502 7941 5961
4876,Mediateam IT Education Center GmbH,Germany,"Lahnstraße 21, 12055 Berlin, Germany",mediateamit.com,+49 30 68083073,English
4877,"Industrial Training Institute, Phulbani",India,"F6PX+FJC, SH 23, Phulbani, Odisha 762001",,
4878,賽馬會體藝中學,Hong Kong,"5-7 Lok King St, Sha Tin, Hong Kong",tic.edu.hk,+852 2691 7150
4879,I.E.S Leonardo da Vinci,Spain,"Av. Baronia de Polop, 10, 03011 Alacant, Alicante, Spain",,+34965936515
4880,Interregional Academy of Personnel Management,Ukraine,"Frometivska St, 2, Kyiv, Ukraine, 03039",maup.com.ua,+380444909505
4881,International Black Sea University,Georgia,,,
4882,Zespol Szkol Ogolnoksztalcacych w Sejnach,Poland,,,
4883,Moscow School #1103,Russia,,,
4884,Universidad de Lima,Peru,"Av. Javier Prado Este 4600, Santiago de Surco 15023, Peru",ulima.edu.pe,+51 1 4376767
4885,Telecommunication Education Center Kazinformtelecom,Kazakhstan,"WG4G+GRM, Erden St, Satpayev 100000, Kazakhstan", ,
4886,TIIT,Taiwan,,,
4887,IES Juan Antonio Castro,Spain,"Av. Francisco Aguirre, 220, 45600 Talavera de la Reina, Toledo, Spain",iesjuanantoniocastro.es,+34 925 80 12 50
4888,Wollo University Kombolcha Institute of Technology,Ethiopia,"3P2W+6PV, Kombolcha, Ethiopia",,+251338519009
4889,Universitat Oberta de Catalunya (Grau),Spain,"Rambla del Poblenou, 156, 08018 Barcelona, Spain",uoc.edu,,Spain
4890,STMIK IKMI CIREBON,Indonesia,"Jl. Perjuangan No.10B, Karyamulya, Kec. Kesambi, Kota Cirebon, Jawa Barat 45131, Indonesia",ikmi.ac.id,+62 231 490480
4891,Center of vocational education in Dnipropetrovsk region,Ukraine,,,
4892,ENIM,Morocco,"Rabat 10000, Morocco",,
4893,GLOBAL COLLEGE,Cyprus,"Eleonon 245, Strovolos 2048, Cyprus",,
4894,DengYun College of Science and Technology Department of Information Technology,China,"FC-26, Panduk Shila Marg, Zero Pusta Rd, Shastri Park, Shahdara, New Delhi, Delhi 110053",adgitmdelhi.ac.in,011 4990 5900
4895,Telematikschule Bern TSBE,Switzerland,,,
4896,"ГУ ""Школа-гимназия №3""",Kazakhstan,"Respublika Ave 35, Astana 010000, Kazakhstan", ,
4897,CSMS of MUST,Mongolia,,,
4898,"INDUSTRIAL TRAINING INSTITUTE, GHOGHAMBA",India,"Gujarat State Highway 150, Vel Kotar, Gujarat 389360",,
4899,"INDUSTRIAL TRAINING INSTITUTE, DASHRATH",India,"94RR+PXC, Ranoli GIDC, Ranoli, Vadodara, Gujarat 391750",,02652240364
4900,ITIS Archimede,Italy,"Via Cento, 38, 40017 San Giovanni in Persiceto BO, Italy",archimede.edu.it,+39 051 821832,Italy
4901,NGO The Centre of ICT,Tajikistan,,,
4902,Universidad de San Buenaventura,Colombia,"Cra. 8h # 172-20, Usaquén, Bogotá, Cundinamarca, Colombia",usbbog.edu.co,+576671090,Spain
4903,ГБПОУ МО «Красногорский колледж»,Russia,,,
4904,"Faculty of Commerce and Accountancy, Chulalongkorn University",Thailand,"254 Phaya Thai Rd, Wang Mai, Pathum Wan, Bangkok 10330, Thailand",chula.ac.th,+66 2 215 3555
4905,Zentech I T Solutions,Ghana,"No 7 Oshimpa Lake, Accra, Ghana",zentechgh.com,+233 30 226 8650,English
4906,"SOŠ elektrotechnická, Trnava",Slovakia,"Sibírska 5945/1, 917 01 Trnava, Slovakia",sose-trnava.edu.sk,
4907,Staroe Drozhzhanoe School #1,Russia,,,
4908,University of Mauritius,Mauritius,"Reduit MU, 80837, Mauritius",uom.ac.mu,+230 403 7400,English
4909,22 TEAM FOUNDATION,Nigeria,"Julie Estate, 4 Oyewo Cl, Oregun 101233, Ikeja, Nigeria",,+2349099085505
4910,INTRAC-The International Training Academy,Yemen,"Baghdad St. Near 60 Meter Rd. Sana'a، شارع بغداد - قرب تقاطع الستين, Sana'a, Yemen",,+9671445377
4911,Loei Rajabhat University,Thailand,"234 ถนน ซอย เลย-เชียงคาน 1 ต.เมือง, อ.เมืองเลย, Loei 42000, Thailand", ,
4912,Domain Group Organisation,Malta,"Domain Building, 102/104 Triq Il Kostitutuzzjoni Mosta, MST 9055, Malta",malta4study.com,+35627433688
4913,Zespół Szkół Zawodowych im. Stanisława Staszica w Wysokiem Mazowieckiem,Poland,,,
4914,Lycée Privé d'Avesnières,France,"51 Rue d'Avesnières, 53000 Laval, France",avesnieres.fr,+33 2 43 02 82 82
4915,EMIT - ENTE MORALE ISTRUZIONE TECNICA,Italy,"Piazzale Antonio Cantore, 10, 20123 Milano MI, Italy",emitfeltrinelli.it,+39 02 832 3290,Italy
4916,Bilopilya school I-III level №3,Ukraine,,,
4918,Universidad Tecnológica del Perú,Peru,,,
4919,Escuela Politecnica Superior de Albacete (UCLM),Spain,"s/n, Av. de España, 02071 Albacete, Spain", ,
4920,Zespół Szkół Ogólnokształcących nr 2 im.G.Morcinka,Poland,"Alojzego Jankowskiego 22, 41-710 Ruda Śląska, Poland",morcinek.edu.pl,+48322420125
4921,Universidad Autónoma de Guadalajara Campus Tabasco,Mexico,"Km. 3.5 Prolongacion Paseo Usumacinta Fracc, El Country, 86039 Villahermosa, Tab., Mexico",tabasco.uag.mx,+52 993 310 5170
4922,Technisch-gewerbliches Berufsbildungszentrum Voelklingen,Germany,,,
4923,健行科技大學,Taiwan,"No. 229, Jianxing Rd, Zhongli District, Taoyuan City, Taiwan 320",,
4924,CRP Gassies,France,"Rue de la Tour de Gassies, 33520 Bruges, France",gassies.net,+33556163333
4925,info,Macau,,,
4926,Plateau Private Schools Jos,Nigeria,,,
4927,SENATI-SEDE PIURA,Peru,,,
4928,InfoTech,Kosovo,"Veternik, M25-2, Prishtina 10000", ,+38344609130
4929,"INDUSTRIAL TRAINING INSTITUTE, GODHARA",India,"QJGM+J6F, Prabha Rd, Bhagwati Society, Panchmahal, Godhra, Gujarat 389001",talimrojgar.gujarat.gov.in,02672 265 808
4930,National University of Management - NUM,Cambodia,"St.96 Christopher Howes Phnom Penh BS16, AP18, Cambodia",,+85523428120
4931,ITIS Cannizzaro,Italy,"Via Raffaello Sanzio, 2, 20017 Rho MI, Italy",itiscannizzaro.edu.it,+39 02 930 3576,Italy
4932,Contehs Interactive School of Technology,The Gambia,,,
4933,Поволжский государственный университет телекоммуникаций и информатики,Russia,"Ulitsa L'va Tolstogo, 23, Samara, Samara Oblast, Russia, 443010", ,
4934,SERVICIO NACIONAL DE APRENDIZAJE -SENA-,Colombia,"Cl. 51 #57-70, La Candelaria, Medellín, La Candelaria, Medellín, Antioquia, Colombia",sena.edu.co,+57 45760000,Spain
4935,ГБПОУ 26КАДР,Russia,,,
4936,CLIC-SERVICE,Senegal,,,
4937,IESTP Simón Bolivar,Peru,"C. 3 100, Bellavista 07011, Peru",institutobolivar.edu.pe,+51 1 7155260,Spain
4938,COMSATS Sahiwal,Pakistan,,,
4939,University of Mauritius,Mauritius,"Reduit MU, 80837, Mauritius",uom.ac.mu,+230 403 7400,English
4940,Kazan Gymnasium #102,Russia,,,
4941,Lango Lippaye High School,Liberia,,,
4942,FORCES ARMEES SENEGALAISE - DTIA,Senegal,,,
4943,"Industrial Training Institute, Gajabahal, Bissam Cuttack",India,,,
4944,ORT-SPb Centre,Russia,,,
4945,Zespół Szkół Politechnicznych,Poland,"Plac Jana z Głogowa 7, 67-200 Głogów, Poland",politechniczna.glogow.pl,+48 76 834 18 53
4946,Europa Networking,Italy,"Viale Abruzzi, 94, 20131 Milano MI, Italy",europanetworking.net,+39 02 8738 9811
4947,Moscow School #875,Russia,,,
4948,BKTM,Germany,,,
4949,IDAT,Peru,,,
4950,IES Salvador Espriu,Spain,"17190 Salt, Girona, Spain", ,
4951,Ebenezer School,Hong Kong,"131 Pok Fu Lam Rd, High West, Hong Kong",ebenezer.org.hk,+85231595400,English
4952,Universitas Darma Persada,Indonesia,"Jl. Taman Malaka Selatan No.8, RT.8/RW.6, Pd. Klp., Kec. Duren Sawit, Kota Jakarta Timur, Daerah Khusus Ibukota Jakarta 13450, Indonesia",unsada.ac.id,+62218649059
4953,Zespol Szkol Nr 26 w Warszawie,Poland,,,
4954,Кызылординский Государственный университет имени Коркыт Ата,Kazakhstan,"Al-Farabi Avenue 71, Almaty 050040, Kazakhstan", ,
4955,Szkola Podstawowa nr 1,Poland,,,
4956,Universidad Politecnica del Centro,Mexico,"Carretera Federal, Villahermosa-Teapa Km 22.5, Tumbulushal Centro, 86290 Villahermosa, Tab., Mexico",updc.edu.mx,+529933125893
4957,"P.V.K.K.INSTITUTE OF TECHNOLOGY, II SHIFT DIPLOMA",India,"Sanapa, Road, Rudrampeta Rd, Anantapur, Andhra Pradesh 515001",pvkkit.ac.in,095506 16861
4958,"Волгодонский техникум информационных технологий, бизнеса и дизайна имени В.В. Самарского",Russia,"г, Ulitsa Gagarina, 13, Volgodonsk, Rostov Oblast, Russia, 347380", ,
4959,明新科技大學,Taiwan,"No. 1號, Xinxing Rd, Xinfeng Township, Hsinchu County, Taiwan 304", ,
4960,Swissnetac,Switzerland,,,
4961,Tecsup,Peru,"Santa Anita, Avenida Cascanueces 2221, Lima 15011, Peru",tecsup.edu.pe,+51 1 3173900,Spain
4962,Youth Empowerment for Global Opportunities,Rwanda,,,
4963,IT Professional,Russia,,,
4964,Realschule Broich,Germany,"Holzstraße 80, 45479 Mülheim an der Ruhr, Germany",realschule-broich.de,+49 208 4554840
4965,Instituto de Matemática y Cálculo Aplicado-Facultad de Ingeniería-UC,Venezuela,"7XGM+9WP, Naguanagua 2005, Carabobo, Venezuela", ,
4966,Sunrise Institute of Technology,Cambodia,"31-89 St 348, Phnom Penh, Cambodia", ,
4967,PST Osimo Castelfidardo,Italy,,,
4968,School 1840,Russia,,,
4969,Institución La Salle,Spain,"C. de Blas Cabrera, 50, 28044 Madrid, Spain",institucionlasalle.es,+34 917 05 00 11,Spain
4970,Piramide/Predin Academy,Guatemala,"3A Avenida D Mixco, 01057, Guatemala",colegiopiramide.edu.gt,+502 2304 1400
4971,Sharnbasva University - Faculty of Engineering and Technology (Formerly Appa Institute of Engineering and Technology ),India,,,
4972,AFI/UE,Senegal,,,
4973,"College Anatole FRANCE, Limousin",France,"7 All. Marcel Proust, 87280 Limoges, France",ac-limoges.fr,+33555354848,France
4974,The Pilot College of Beijing University of Technology,China,,,
4975,INSTITUCION EDUCATIVA COMFACOR,Colombia,"230002, Montería, Córdoba, Colombia",comfacor.com.co,+57 47834111
4976,"Universite de Kinshasa, Faculte Polytechnique",Democratic Republic of the Congo,"Faculté Polytechnique, Université de, Kinshasa, Congo - Kinshasa",polybibliocentrale.com,+243 812 115 558
4977,Elimu Resource Centre,Kenya,"Q4CC+MQH, Malindi, Kenya",elimu.ca,+254 700 875540
4978,Rambhai Barni Rajaphat University,Thailand,"41 หมู่ที่ 5 ถนนสุขุมวิท Mueang Chanthaburi District, Chanthaburi 22000, Thailand", ,
4979,KOGI STATE POLYTECHNIC,Nigeria,,,
4980,TECHLIVE Technology Institute,Cambodia,"No. 08N, St. 371 (Solar), Sangkat Steung Mean Chey Phnom Penh Phnom Penh, 12352, Cambodia",facebook.com,+855 69 502 626
4981,Zespół Szkół Ogólnokształcących i Zawodowych w Zagórowie,Poland,"Pyzderska 75, 62-410 Zagórów, Poland",zszagorow.eu,+48 63 276 11 13,Poland
4982,Staatliche Berufsschule mit BFS Lichtenfels,Germany,"Goldbergstraße 5, 96215 Lichtenfels, Germany",bs-lif.de,+49 9571 95740
4983,Instituto Tecnológico de Cholula,Mexico,,,
4984,"Faculty of computers and information, Mansoura University",Egypt,"١شارع, El Gomhouria St, Dakahlia Governorate 35516, Egypt", ,
4985,I.E.S. Salduba,Spain,"Lugar Finca El Arquillo, s/n, 29670 San Pedro Alcántara, Málaga, Spain",iessalduba.com,+34 952 78 71 40
4986,UNIVERSIDAD RICARDO PALMA-FACULTAD DE INGENIERÍA,Peru,"33, Av. Alfredo Benavides 5440, Santiago de Surco 15039, Peru",urp.edu.pe,+51 1 7080000,Spain
4987,CIFP TARTANGA LHII,Spain,"Tartanga Kalea, 15, 48950 Erandio, Bizkaia, Spain",tartanga.eus,+34 944 67 53 11
4988,"I.T.T. ""E. Fermi""",Italy,"Via Cesare Minardi, 14, 00044 Frascati RM, Italy",fermifrascati.edu.it,+3906121127570
4989,Politeknik Negeri Jember,Indonesia,,,
4990,Publiczne Gimnazjum nr 3 w Brzegu,Poland,"Bohaterów Monte Cassino 14, 49-300 Brzeg, Poland", ,
4991,VOS a SPS Zdar nad Sazavou,Czechia,"1, Studentská 761, 591 01 Žďár nad Sázavou, Czechia",spszr.cz,+420566651211
4992,Christ College,Hong Kong,"Hong Kong, Sha Tin, 博康邨5A區",,
4993,Ecole Nouvelle Superieure d'Ingenieurs et de Technologie (ENSIT),Côte d'Ivoire,"9272+7MV, K 22, Abidjan, Côte d’Ivoire",ensit.ci,+225 07 07 09 8414,France
4994,COLEGIO DE BACHILLERATO CARMEN MORA DE ENCALADA,Ecuador,"M59W+WCW, Pasaje, Ecuador", ,
4995,"INDUSTRIAL TRAINING INSTITUTE, SARASPUR",India,"Ta : District :, Industrial Training Institute, opp. Guru Dwara, Saraspur, Ahmedabad, Gujarat 380018",,07922923559
4996,Shuvu Netnaya,Israel,,,
4997,Information Engineering Institute of Jinan Technician College,China,"New Mehrauli Road, JNU Ring Rd, New Delhi, 110067",jnu.ac.in,01126742575,English
4998,Liceul de Arta Margareta Sterian,Romania,"Strada Bucegi 6, Buzău 120208, Romania",liceuldeartabuzau.ro,+40238720012,English
4999,PSD-اكاديمية الامن العام لتكنولوجيا الاتصالات والمعلومات,Jordan,"2W5F+948, Amman, Jordan",,
5000,Chonnam National University,South Korea,"77 Yongbong-ro, Buk-gu, Gwangju, South Korea", ,
5001,Collège Jean Jaurès,France,"28 Rue de la Libération, 78300 Poissy, France",ac-versailles.fr,+33 1 30 65 16 10,France
5002,Politeknik Muadzam Shah,Malaysia,"Lebuhraya Tun Razak, 26700 Muadzam Shah, Pahang, Malaysia",pms.edu.my,
5003,國立臺東大學,Taiwan,"950, Taiwan, Taitung County, Taitung City, 大學路二段369號", ,
5004,ESMT,Senegal,"PG2X+2FG, Ex Terrain Foyer Rocade Fann Bel Air, BP 10 000 Dakar Liberté SENEGAL Dakar, Dakar 13500, Senegal",esmt.sn,+221338690300
5005,Moscow School #825,Russia,,,
5006,Colegio Tecnico Profesional Nicoya,Costa Rica,,,
5007,National Open University INTUIT,Russia,,,
5008,Colegiul Agricol Nicolae Cornateanu Tulcea,Romania,"Strada Isaccei 104, Tulcea 820228, Romania",canc.ro,+40 240 534 955
5009,Ardon College of Agriculture and Technology,Russia,,,
5010,Kakinada Institute of Engineering & Technology,India,"Q78C+2R4, Yanam Rd, Korangi, Andhra Pradesh 533461",kietgroup.info,090908 87777
5011,Burqa Secondary School for Girls,Palestine,,,
5012,INP-HB Yamoussoukro,Côte d'Ivoire,"Yamoussoukro, Côte d’Ivoire",inphb.ci,+225 27 30 6 46700
5013,COLEGIO NUESTRA SEÑORA DE FATIMA BOGOTA-POLICIA NACIONAL,Colombia,"Colegio Nuestra Señora De Fatima Policia Nacional, Bogotá, Colombia",,
5014,Institut Teknologi Sepuluh Nopember,Indonesia,"Jl. Teknik Kimia, Keputih, Kec. Sukolilo, Kota SBY, Jawa Timur 60111, Indonesia",its.ac.id,+62315994251,English
5015,INSTITUTO TECNOLÓGICO DE GUSTAVO A . MADERO,Mexico,"Avenida 608 y Avenida 412 300, Zoológico de San Juan de Aragón, Gustavo A. Madero, 07470 Ciudad de México, CDMX, Mexico",gamadero.tecnm.mx,+52 55 2651 6275,Spain
5016,IUT,France,,,
5017,Instituto Nacional de Investigación Y Capacitación de Telecomunicaciones,Peru,"Av. San Luis 1771, San Borja 15021, Peru",inictel-uni.edu.pe,+51 1 6261400,Spain
5018,Institut National des Telecommunications,France,"Courcouronnes FR, 9 Rue Charles Fourier, 91000, France",telecom-sudparis.eu,+33 1 60 76 40 40
5019,Fundacion Tomillo,Spain,"C. Albuñuelas, 15, 28041 Madrid, Spain",tomillo.org,+34 913 69 82 01
5020,Lokal,Indonesia,,,
5021,"King's College, Lagos",Nigeria,"3 Catholic Mission St, Lagos Island 102273, Lagos, Nigeria",kingscollegelagos.sch.ng,+2349051018885,English
5022,Publiczna Szkola Podstawowa nr 7,Poland,,,
5023,Agrupamento de Escolas Coimbra Oeste,Portugal,"3041-901, Rua António Augusto Gonçalves, Coimbra, Portugal",aecoimbraoeste.pt,+351 239 802 310
5024,Kelamayi Vocational-Technical college,China,"8VHP+RRJ, Daqing E Rd, Dushanzi District, Karamay, Xinjiang, China, 833699",,
5025,Instituto de Educacion Media Superior - General Lázaro Cárdenas Del Río,Mexico,,,
5026,Дархан-Уул CISCO төв,Mongolia,,,
5027,الجامعة الإسلامية - غزة,Palestine,"GC8Q+2WC, Gaza",,
5028,Alcaldía Municipal de Cojutepeque,El Salvador,"P3C8+H5M, 6A Avenida Sur, Cojutepeque, El Salvador",cojutepeque.gob.sv,+503 2379 3900
5029,Liceul Teoretic Nicolae Balcescu Cluj-Napoca,Romania,"Strada Constanța 6, Cluj-Napoca 400158, Romania",balcescucj.ro,+40264432518
5030,Universidad Tecnologica del Centro (UNITEC),Venezuela,"644F+9J6, Guacara 2015, Carabobo, Venezuela",portal.unitec.edu.ve,
5031,MESI,Russia,"Ulitsa Novatorov, 3 корпус 8, Irkutsk, Irkutsk Oblast, Russia, 664020",cafe-mesi.ru,,Russian Federation (the)
5032,Colegiul National Vasile Lucaciu,Romania,"Strada Culturii 2, Baia Mare 430282, Romania",lucaciu.ro,+40 262 211 943,Romania
5033,Certclouds,Pakistan,,,
5034,UNIVERSITAS MEDAN AREA,Indonesia,"Jl. Setia Budi No.79 B, Tj. Rejo, Kec. Medan Sunggal, Kota Medan, Sumatera Utara 20112, Indonesia",uma.ac.id,
5035,Unidad Educativa Guillermo Mensi,Ecuador,"327M+27W, Chilcapamba, Ecuador",,
5036,EC2LT,Senegal,"MGPX+QGF, Dakar, Senegal",,
5037,Shakhty Professional School #40,Russia,,,
5038,Institution Legal Name: Kakinada Institute of Engineering and Technology 2nd Shift Polytechnic,India,,,
5039,UCV CHICLAYO,Peru,,,
5040,长江工程职业技术学院,China,"China, Hubei, Wuhan, Jiangxia District, 文化路 邮政编码: 430200",cj-edu.com.cn,Send to your phone
5041,Socrate Orizont Lyceum,Moldova,"Ion Pelivan St 13A, Chișinău 2064, Moldova", ,
5042,BKT Lüdenscheid,Germany,"Raithelpl. 5, 58509 Lüdenscheid, Germany",bkt-luedenscheid.de,+49 2351 9663100
5043,Institut Supérieur des Etudes Technologiques de Bizerte,Tunisia,,,
5044,Al Karmel Secondary School for Girls,Palestine,غزة الرمال بجوار المرور مقابل مركز رشاد الشوا,m.facebook.com,+970 8 286 1309
5045,Instituto Tecnológico de Atitalaquia,Mexico,"Av. Tecnológico No. 9, Tezoquipa, 42970 Atitalaquia, Hgo., Mexico",itatitalaquia.edu.mx,+527787373141
5046,INSTITUTO NACIONAL DE INVESTIGACIÓN Y CAPACITACIÓN DE TELECOMUNICACIONES INICTEL-UNI,Peru,"Av. San Luis 1771, San Borja 15021, Peru",inictel-uni.edu.pe,+51 1 6261400,Spain
5047,Ooredoo Digital,Oman,,,
5048,Libyan International Medical University,Libya,"339P+62Q, Benghazi, Libya", ,
5049,Zespol Szkol Budowlano-Elektrycznych,Poland,"58-100 Świdnica, Poland",zsbe.swidnica.pl,"RFPG+7R Świdnica, Poland"
5050,COLEGIO FISCAL DE BACHILLERATO SIMON BOLIVAR,Ecuador,"R4V7+V43, Av. de las Américas, Guayaquil 090513, Ecuador",,+593985307654
5051,"Federal Government Girls College, Akure, Ondo state",Nigeria,,,
5052,STIKOM Dinamika Bangsa,Indonesia,,,
5053,Bolyai Janos Altalanos Iskola Informatikai es Kozgazdasagi Szakkozepiskola,Hungary,"Mosonmagyaróvár, Régi Vámház tér 6, 9200 Hungary",bolyaitechnikum.hu,+36 96 578 150
5054,北京北大方正软件技术学院,China,"China, Beijing, Haidian District, 成府路298号（西门）方正大厦2F0219室",pfc.edu.cn,+86 10 5110 8888,English
